Organisation Name,Address 1,Address 2,Postcode,Website,CQC_URL,Town/City,County,Type & Rating,First appeared,Last appeared,Provider name,Status,Estimated days on register (max),Estimate confidence
Immaculate Care Limited,50 Salisbury Road,,TW4 6JQ,,https://www.cqc.org.uk/location/1-9861340170,Hounslow,Middlesex,Worker (A rating),2022-09-02,2024-01-02,Immaculate Care Limited,Active,526,Good
E2E Homecare,"The Axis Building, Maingate","Kingsway North, Team Valley Trading Estate",NE11 0NQ,https://www.e2ehomecare.co.uk,https://www.cqc.org.uk/location/1-14691314394,Gateshead,Tyne And Wear,Worker (A rating),2023-03-13,2024-01-02,E2E Homecare Ltd,Active,334,Good
117A Island Business Centre,18-36 Wellington Street,,SE18 6PF,,https://www.cqc.org.uk/location/1-12719476425,London,,Worker (A rating),2022-08-26,2024-03-01,Gold Achievers Care Ltd,Active,628,Medium
Wesleycare Limited,Unit 8,"Hollins Business Centre, Rowley Street",ST16 2RH,,https://www.cqc.org.uk/location/1-2238549582,Stafford,Staffordshire,Worker (A rating),2023-03-06,2023-12-05,Wesleycare Limited,Active,326,Good
Comfort Zone Care Services Ltd,"Unit 1, 27 Brunswick Street",,LU2 0HF,,https://www.cqc.org.uk/location/1-2898898225,Luton,,Worker (A rating),2021-09-30,2023-12-05,Comfort Zone Care Services Ltd,Active,888,Medium
Walkers Close,Domiciliary Care Agency,3-6 Walkers Close,SG17 5DE,https://www.centralbedfordshire.gov.uk,https://www.cqc.org.uk/location/1-130953666,Shefford,Bedfordshire,Worker (A rating),2020-07-27,2021-04-09,Central Bedfordshire Council,Active,-,-
CCAH,"3 The Old Shippon, Holly House Estate","Middlewich Road, Cranage",CW10 9LT,,https://www.cqc.org.uk/location/1-14517848166,Middlewich,Cheshire,Worker (A rating),2023-02-08,2024-03-01,Care Connect Cheshire Ltd,Active,460,Medium
Deeper Care Escrick,15 Escrick Business Park,Escrick,YO19 6FD,https://www.deepercare.co.uk,https://www.cqc.org.uk/location/1-485600993,York,,Worker (A rating),2021-07-26,2023-10-13,Deeper Care Solutions Ltd,Active,935,Bad
House of the Flame Lily,144 Penn Road,,WV3 0EE,,https://www.cqc.org.uk/location/1-6592356837,Wolverhampton,West Midlands,Worker (A rating),2022-11-01,2024-01-02,The Flame Lily Healthcare Ltd,Active,474,Good
New Hope Care Ltd,128 Brook Road,,B68 8AE,,https://www.cqc.org.uk/location/1-2287168462,Oldbury,West Midlands,Worker (A rating),2023-01-24,2023-08-11,New Hope Care Ltd,Active,267,Medium
Santos Care Limited,36 -38  Berry Street,,WV1 1HA,https://www.santoshealthcare.co.uk,https://www.cqc.org.uk/location/1-12038361290,Wolverhampton,,Worker (A rating),2022-05-06,2024-01-02,Santos Care Limited,Active,662,Good
Efficiency-For Care,"Unit 5, Clacton Enterprise Centre",Davy Road,CO15 4XD,,https://www.cqc.org.uk/location/1-11566387035,Clacton-on-sea,,Worker (A rating),2022-03-11,2023-05-16,Efficiency-For Care Limited,Active,459,Good
Trust Life Care,"Suite G3, Morwick Hall","Mortec Park, York Road",LS15 4TA,https://www.trustlifecare.co.uk,https://www.cqc.org.uk/location/1-10576043455,Leeds,West Yorkshire,Worker (A rating),2023-01-24,2023-09-15,Trust Life Care Ltd,Active,305,Medium
Karia Care Services,Unit 313,"Barking Enterprise Centre, 50 Cambridge Road",IG11 8FG,,https://www.cqc.org.uk/location/1-7258140668,Barking,,Worker (A rating),2022-06-01,2024-01-02,Karia Befriending Care Agency Limited,Active,638,Good
Promises of Care,80 Darlington Street,,WV1 4JD,https://www.promisesofcare.co.uk,https://www.cqc.org.uk/location/1-2501499161,Wolverhampton,West Midlands,Worker (A rating),2022-06-01,2024-03-01,Promises of Care Limited,Active,723,Medium
Eden Ivy Care Ltd,48 Bexley High Street,,DA5 1AH,,https://www.cqc.org.uk/location/1-8573486494,Bexley,,Worker (A rating),2022-08-09,2024-04-30,Eden Ivy Care Limited,Active,710,Medium
Bright Horizons Care Recruitment LTD,"Unit A9, Seedbed Business Centre","Vanguard Way, Shoeburyness",SS3 9QY,https://www.brighthorizonscarerecruitment.com,https://www.cqc.org.uk/location/1-12910325360,Southend-on-sea,,Worker (A rating),2022-11-22,2024-03-01,Bright Horizons Care Recruitment Limited,Active,544,Medium
IXCEED HEALTH UK LTD,Leclarely,"Alexander Lane, Shenfield",CM15 8QE,,https://www.cqc.org.uk/location/1-12790080850,Brentwood,,Worker (A rating),2023-03-06,2023-11-02,Ixceed Health UK LTD,Active,298,Good
2M Health & Home Care Services Ltd,"Suite 2, The Offices","121 Sibson Road, Birstall",LE4 4ND,https://www.2mhealthandhomecare.co.uk,https://www.cqc.org.uk/location/1-13774240233,Leicester,,Worker (A rating),2022-06-01,2024-03-01,2M Health & Home Care Services Ltd,Active,723,Medium
Elite Careplus Ltd,159 Stafford Road,,SM6 9BT,https://www.elitecareplus.co.uk,https://www.cqc.org.uk/location/1-2598387969,Wallington,,Worker (A rating),2022-10-17,2024-03-01,Elite Careplus Ltd,Active,576,Medium
Miracle Care Centre CHC,Carnon Building,"Wilson Way, Pool",TR15 3RS,https://www.miraclecarecentre.co.uk,https://www.cqc.org.uk/location/1-15647501383,Redruth,,Worker (A rating),2022-04-12,2023-09-25,Miracle Centre Limited,Active,568,Good
Medacs Homecare - Bristol,Office 6 Westbury Court,Westbury-on-Trym,BS9 3EF,https://www.medacs.com,https://www.cqc.org.uk/location/1-315027057,Bristol,,Worker (A rating),2020-07-27,2022-02-16,Medacs Healthcare PLC,Active,-,-
Hepzibar Care Agency Limited,Jhumat House,160 London Road,IG11 8BB,,https://www.cqc.org.uk/location/1-12326766750,Barking,Essex,Worker (A rating),2022-11-01,2024-01-02,Hepzibar Care Agency Ltd,Active,474,Good
Cmichaels Healthcare,"The Vault Business Centre, 123 High Street",Bordesley,B12 0JU,https://www.cmichaelshealthcare.co.uk,https://www.cqc.org.uk/location/1-4441336861,Birmingham,West Midlands,Worker (A rating),2022-02-16,2023-06-01,Cmichaels Healthcare Ltd,Active,517,Good
Lighthouse Professional Care Ltd,"Unit 3, 38 High Street",,BA12 9AF,https://www.lighthousecare.co.uk,https://www.cqc.org.uk/location/1-7599853232,Warminster,,Worker (A rating),2021-09-30,2024-01-02,Lighthouse Professional Care Limited,Active,922,Medium
Merit Healthcare Ltd,"Unit 5, BSS House",Cheney Manor Industrial Estate,SN2 2PJ,https://www.merithealthcare.co.uk,https://www.cqc.org.uk/location/1-3001630780,Swindon,,Worker (A rating),2022-01-12,2022-11-01,Merit Healthcare Ltd,Active,383,Bad
5 Care Services Limited,The Enterprise Hub,34 Green Lane,WS2 8HB,https://www.5careservices.co.uk,https://www.cqc.org.uk/location/1-219868345,Walsall,West Midlands,Worker (A rating),2022-08-09,2024-03-01,5 Care Services Ltd,Active,697,Medium
Midas Care Solutions Ltd,Trafalgar House,81-83 Darlington Street,WV1 4JD,https://www.midasrecruitmentsolutions.co.uk,https://www.cqc.org.uk/location/1-3071594767,Wolverhampton,,Worker (A rating),2022-08-09,2023-11-02,Midas Care Solutions Ltd,Active,550,Medium
South Essex Domiciliary Care,"11 Northlands Pavement, Pitsea Centre",Pitsea,SS13 3DU,https://www.peabody.org.uk,https://www.cqc.org.uk/location/1-12829749535,Basildon,,Worker (A rating),2020-07-27,2023-06-01,Peabody Trust,Active,-,-
Ignition Care Ltd,13 Southey Walk,,RM18 8AT,,https://www.cqc.org.uk/location/1-10637852554,Tilbury,,Worker (A rating),2023-01-24,2024-03-01,Ignition Care Ltd,Active,523,Medium
Victory Locum Limited,"Office 220, Bletchley Business Campus","1-9  Barton Road, Bletchley",MK2 3HU,https://www.victorylocum.com,https://www.cqc.org.uk/location/1-15761717387,Milton Keynes,,Worker (A rating),2022-08-09,2023-12-05,Victory Locum Limited,Active,578,Medium
Senior Health Care Cornwall,"Suite 5, 1 Riverside House",Heron Way,TR1 2XN,https://www.seniorhealthcare.org.uk,https://www.cqc.org.uk/location/1-10272751952,Truro,,Worker (A rating),2022-03-11,2024-02-05,Senior Health Care Agency Ltd,Active,738,Good
Knaresborough House,Knaresborough House,High Street,HG5 0HW,https://monarchycareservices.co.uk,https://www.cqc.org.uk/location/1-8182132191,Knaresborough,North Yorkshire,Worker (A rating),2022-03-11,2024-03-01,Monarchy Care Services Ltd,Active,802,Medium
New Hope Care Rutland,"The Offices, Mickley","Burley Road, Langham",LE15 7JB,,https://www.cqc.org.uk/location/1-13727045332,Oakham,,Worker (A rating),2023-01-24,2023-08-11,New Hope Care Ltd,Active,267,Medium
Ram Personnel Healthcare,"Kestrel Court, Waterwells Drive","Waterwells Business Park, Quedgeley",GL2 2AT,,https://www.cqc.org.uk/location/1-12591975171,Gloucester,Gloucestershire,Worker (A rating),2023-01-24,2024-01-02,Ram Personnel Healthcare Ltd,Active,438,Medium
Expert Care Solutions Ltd Fleet,Centaur House,Ancells Road,GU51 2UJ,https://www.expertcaresolutions.co.uk,https://www.cqc.org.uk/location/1-13514449565,Fleet,Hampshire,Worker (A rating),2022-08-09,2024-03-01,Expert Care Solutions Ltd,Active,697,Medium
Leicester,25 Church Gate,,LE1 3AL,https://www.instanthealthcareuk.com,https://www.cqc.org.uk/location/1-3937301061,Leicester,Leicestershire,Worker (A rating),2021-04-09,2024-03-01,UK Instant Services Ltd,Active,1248,Bad
Awesome Healthcare Basinstoke,"Devonshire Business Centre, Devonshire House","Aviary Court, Wade Road",RG24 8PE,,https://www.cqc.org.uk/location/1-13376619635,Basingstoke,,Worker (A rating),2020-07-27,2023-11-02,Awesome Healthcare Solutions Limited,Active,-,-
Talbert Living Care Investment,"Office Number 4, JohnPye Serviced Offices","Mercury House, North Gate, Basford",NG7 7FN,https://talbertlivingcare.co.uk,https://www.cqc.org.uk/location/1-9833753018,Nottingham,,Worker (A rating),2022-11-22,2023-10-13,Talbert Living Care Investments Limited,Active,364,Good
Six C's Care Agency,Pacific House Business Centre,"Parkhouse, Fletcher Way",CA3 0LJ,,https://www.cqc.org.uk/location/1-6274060924,Carlisle,,Worker (A rating),2021-07-26,2023-10-13,Six CS Care Agency Ltd,Active,935,Bad
Safer Staffing Solutions Ltd,"C32 Alison Building, Alison Business Centre",Alison Crescent,S2 1AS,,https://www.cqc.org.uk/location/1-9938958268,Sheffield,,Worker (A rating),2022-09-02,2024-03-01,Safer Staffing Solutions Ltd,Active,611,Medium
ATIPA Healthcare Group Ltd,"West Midlands, Vast The Dudson Centre",Hope Street,ST1 5DD,,https://www.cqc.org.uk/location/1-18680368249,Stoke-on-trent,,Worker (A rating),2023-02-08,2024-05-13,ATIPA Healthcare Group Ltd,Active,475,Good
Gain Healthcare Ltd,5 London Road,,OX26 6BU,https://www.gainhealthcare.co.uk,https://www.cqc.org.uk/location/1-11816695906,Bicester,,Worker (A rating),2021-07-26,2022-06-01,Gain Healthcare Ltd,Active,485,Bad
Morecare Services(UK)Ltd,51 Ferndale Road,,TW15 3PP,,https://www.cqc.org.uk/location/1-477624268,Ashford,Surrey,Worker (A rating),2021-04-09,2021-04-09,Morecare Services (Uk) Ltd,Active,239,Bad
Care2Victory Services Ltd,46 Dean Road,,ME10 2DG,https://www.Care2Victory-services.com,https://www.cqc.org.uk/location/1-12452045403,Sittingbourne,,Worker (A rating),2022-11-22,2024-03-01,Care2Victory Services Ltd,Active,544,Medium
Nikee Healthcare Services,Tower House,67-71 Lewisham High Street,SE13 5JX,https://www.nikeehealthcare.com,https://www.cqc.org.uk/location/1-4522249963,London,,Worker (A rating),2022-04-12,2024-03-01,Nikee Healthcare Services Ltd,Active,779,Medium
EL Care Services Limited,Hamill House,112 - 116 Chorley New Road,BL1 4DH,,https://www.cqc.org.uk/location/1-6115136541,Bolton,,Worker (A rating),2022-10-17,2023-11-02,El Care Services Limited,Active,429,Good
SNE Care Services Ltd,"Suite 15, Evolution Business Centre","6 County Business Park, Darlington Road",DL6 2NQ,https://www.sne-care.co.uk/,https://www.cqc.org.uk/location/1-13687180775,Northallerton,,Worker (A rating),2022-08-09,2024-03-01,SNE Care Services Ltd,Active,697,Medium
Manuel Divine Care Ltd t/a Harmony Projects,"Unit 9, Cartwright Court","Bradley Business Park, Bradley",HD2 1GN,,https://www.cqc.org.uk/location/1-7812353921,Huddersfield,,Worker (A rating),2022-04-12,2024-01-02,Manuel Divine Care LTD,Active,694,Good
Tenda Hands Homecare,Miller House,Rosslyn Crescent,HA1 2RZ,https://www.tendahomecare.co.uk,https://www.cqc.org.uk/location/1-6022527013,Harrow,,Worker (A rating),2022-10-17,2023-07-05,Tenda Hands HomeCare Ltd,Active,289,Good
Creative Care Limited,253-255 Belgrave Gate,Studio 5,LE1 3HU,,https://www.cqc.org.uk/location/1-2180776932,Leicester,Leicestershire,Worker (A rating),2021-07-26,2022-11-01,Creative Care Limited,Active,590,Bad
Rapid Care,67 Station Road,Rainham,ME8 7SB,,https://www.cqc.org.uk/location/1-118306345,Gillingham,Kent,Worker (A rating),2021-04-09,2022-08-09,Rapid Care Ltd,Active,635,Bad
Uriel Care2U Limited,51 Colney Hatch Lane,,N10 1LJ,https://www.urielcare.co.uk,https://www.cqc.org.uk/location/1-3236463275,London,,Worker (A rating),2021-07-26,2023-10-02,Uriel Care2U Limited,Active,915,Bad
Limitless Healthcare Services Ltd,"Suite 1, Unit 3, Bramley Grange","Skeltons Lane, Thorner",LS14 3DW,https://www.limitlesshealthcare.net,https://www.cqc.org.uk/location/1-13001721055,Leeds,,Worker (A rating),2022-08-09,2023-08-11,Limitless Healthcare Services Ltd,Active,441,Medium
Dependable Health Care Ltd,"Ray Street, Enterprise Centre",Ray Street,HD1 6BL,https://www.dependablehealth.co/,https://www.cqc.org.uk/location/1-9529827421,Huddersfield,,Worker (A rating),2022-06-01,2024-01-02,Dependable Health Care Ltd,Active,638,Good
Profad Care Agency Limited,1A Queen Street,,NN10 0AA,https://www.profadcareagency.co.uk,https://www.cqc.org.uk/location/1-9039965728,Rushden,,Worker (A rating),2023-01-24,2024-03-01,Profad Care Agency Limited,Active,523,Medium
Luna 3-6-5 Healthcare Services Ltd,Melbourne House Business Centre,36 Chamberlain Street,BA5 2PJ,,https://www.cqc.org.uk/location/1-11977151299,Wells,,Worker (A rating),2023-04-19,2023-12-05,Luna 3-6-5 Healthcare Services Ltd,Active,293,Medium
PPC Healthcare Ltd,78 Gervase Avenue,,S8 7PE,,https://www.cqc.org.uk/location/1-11773320704,Sheffield,,Worker (A rating),2022-08-09,2024-01-02,PPC Healthcare Ltd,Active,612,Medium
Dynamic Community Care Ltd,206 Turners Hill,Cheshunt,EN8 9DE,,https://www.cqc.org.uk/location/1-11851922555,Waltham Cross,,Worker (A rating),2023-03-13,2024-01-02,Dynamic Community Care Ltd,Active,334,Good
Gloriavd Health Care Ltd,Malmarc House,116 Dewsbury Road,LS11 6XD,https://www.gloriavdhealthcareltd.com,https://www.cqc.org.uk/location/1-11343561261,Leeds,West Yorkshire,Worker (A rating),2023-01-24,2023-12-05,Gloriavd Health Care Ltd,Active,404,Medium
Medacs Healthcare PLC,12 Fusion Court,"Aberford Road, Garforth",LS25 2GH,https://www.medacs.com,https://www.cqc.org.uk/location/1-3063105629,Leeds,West Yorkshire,Worker (A rating),2020-07-27,2022-02-16,Medacs Healthcare PLC,Active,-,-
Promises of Care Stoke,Winton House,Stoke Road,ST4 2RW,https://www.promisesofcare.co.uk,https://www.cqc.org.uk/location/1-7074069949,Stoke-on-trent,,Worker (A rating),2022-06-01,2024-03-01,Promises of Care Limited,Active,723,Medium
Graceage Care Colchester,"Office F8, Innovation Centre, Knowledge Gateway",Boundary Road,CO4 3ZQ,https://www.graceagecare.co.uk,https://www.cqc.org.uk/location/1-11958756555,Colchester,,Worker (A (SME+)),2022-01-12,2023-06-01,Graceage Care Ltd,Active,588,Bad
Options Health Care Services,241 Kings Court,London Road,SG1 2NG,https://www.optionscare.co.uk,https://www.cqc.org.uk/location/1-2047021873,Stevenage,,Worker (A rating),2022-02-16,2024-03-01,Options Health Care Services Limited,Active,837,Medium
Connect Nursing,577 High Road,Leytonstone,E11 4PB,https://www.connectnursing.co.uk,https://www.cqc.org.uk/location/1-305387806,London,,Worker (A rating),2022-08-09,2023-11-02,Connect Nursing Limited,Active,550,Medium
Elect Care Consultants Ltd,Studio 25 Monohaus,"143 Mare Street, Hackney",E8 3RH,,https://www.cqc.org.uk/location/1-2295977412,London,,Worker (A rating),2023-01-24,2023-07-18,Elect Care Consultants Limited,Active,253,Medium
Oxford Branch,Kwikfix Recruitment Services Ltd,"Sandford Gate, East Point Business Park",OX4 6LB,https://www.kwikcareservices.com,https://www.cqc.org.uk/location/1-10942673855,Oxford,,Worker (A rating),2021-07-26,2023-11-02,Kwikfix Recruitment Services Limited,Active,968,Bad
Three Roses,"PO Box, 24B Old Mills","Paulton House, Old Mills, Paulton",BS39 7SX,https://www.threeroses.co.uk,https://www.cqc.org.uk/location/1-14765459936,Bristol,,Worker (A rating),2022-08-26,2024-03-01,Three Roses Ltd,Active,628,Medium
Domiciliary Care Croydon,27 Stafford Road,,CR0 4NG,https://www.dynastycareservices.co.uk,https://www.cqc.org.uk/location/1-11378160053,Croydon,,Worker (A rating),2022-03-11,2024-03-01,Dynasty Care Services Limited,Active,802,Medium
Optimist Care Ltd,12 Lever Square,,RM16 4EX,,https://www.cqc.org.uk/location/1-11773757180,Grays,,Worker (A rating),2023-06-15,2023-08-04,Optimist Care Ltd,Active,69,Good
Alpha Quality Care Newport,Suite 7,30 Quay Street,PO30 5BA,https://www.alphaqualitycare.co.uk,https://www.cqc.org.uk/location/1-4853518682,Newport,,Worker (A rating),2022-08-09,2024-03-01,Alpha Quality Care LTD,Active,697,Medium
Olives Healthcare Services Ltd,Unit 1,"Meridian Trading Estate, Bugsby's Way",SE7 7SJ,,https://www.cqc.org.uk/location/1-10736408644,London,,Worker (A rating),2022-03-11,2024-01-02,Olives Healthcare Services Ltd,Active,717,Good
Fusco Browne Healthcare Limited,6 Nursery Street,,S3 8GG,https://www.fuscobrownehealthcare.co.uk,https://www.cqc.org.uk/location/1-3723998876,Sheffield,South Yorkshire,Worker (A rating),2021-07-26,2024-03-01,Fusco Browne Healthcare Ltd,Active,1115,Bad
Kindered Hearts Limited Head Office,"Unit 3, Priory Works",Priory Avenue,SS2 6LD,https://www.kinderedhearts.co.uk,https://www.cqc.org.uk/location/1-18075196009,Southend-on-sea,,Worker (A rating),2022-10-17,2024-01-02,Kindered Hearts Limited,Active,491,Good
Tendi Care,10 Hengist Drive,,ME20 7FF,https://www.tendicare.co.uk,https://www.cqc.org.uk/location/1-9944023918,Aylesford,,Worker (A rating),2022-10-17,2024-01-02,Tendi Care Ltd,Active,491,Good
Pleasant Valley Care Limited,"Safestore, Birchley House","Birchley Roundabout, Birchfield Lane",B69 1DT,,https://www.cqc.org.uk/location/1-1555539389,Oldbury,,Worker (A rating),2021-11-02,2023-06-01,Pleasant Valley Care Limited,Active,621,Good
Empathy Care Services,Garrick House Business Centre,"9 High Street, Glinton",PE6 7JP,,https://www.cqc.org.uk/location/1-11554015794,Peterborough,,Worker (A rating),2022-04-12,2024-01-02,Empathy Care Services Limited,Active,694,Good
Macrita Healthcare - Main Office,Aztec Centre,"Aztec West, Almondsbury",BS32 4TD,,https://www.cqc.org.uk/location/1-11475350171,Bristol,,Worker (A rating),2022-10-17,2023-12-05,Macrita Ltd,Active,457,Good
Arch Futures,"2, The Crescent, Suite 4",King Street,LE1 6RX,,https://www.cqc.org.uk/location/1-5310224737,Leicester,,Worker (A rating),2023-09-15,2023-11-02,Arch Futures Ltd,Active,86,Good
Awesome Healthcare Solutions Limited,Howco Group,211 Carbrook Street,S9 2JN,https://www.awesomecaresolutions.co.uk,https://www.cqc.org.uk/location/1-2306442171,Sheffield,,Worker (A rating),2020-07-27,2023-11-02,Awesome Healthcare Solutions Limited,Active,-,-
Concept Care Solutions,43a Roman Way,,N7 8XF,,https://www.cqc.org.uk/location/1-19225987869,London,,Worker (A rating),2022-05-06,2022-06-01,Concept Care Solutions Limited,Active,117,Medium
Competent Healthcare Ltd,"Room 2, 3rd Floor, Royal Mail House",Terminus Terrace,SO14 3FD,https://www.competenthealthcareltd.co.uk,https://www.cqc.org.uk/location/1-4871398848,Southampton,,Worker (A rating),2022-11-22,2024-02-05,Competent Healthcare Ltd,Active,480,Good
Majestic Healthcare Ltd,"Unit 20, The Pressworks 36-38",Berry Street,WV1 1HA,https://www.majestichealthcareltd.co.uk,https://www.cqc.org.uk/location/1-14234228045,Wolverhampton,,Worker (A rating),2022-01-12,2024-03-01,Majestic Healthcare Ltd,Active,908,Bad
FDS Divine Care Ltd,"Unit 12, Leicester Business Centre",111 Ross Walk,LE4 5HH,,https://www.cqc.org.uk/location/1-4203576914,Leicester,,Worker (A rating),2022-06-01,2024-01-02,FDS Divine Care Ltd,Active,638,Good
Deeper Care York,Oakdale Road,Clifton Moor,YO30 4XL,https://www.deepercare.co.uk,https://www.cqc.org.uk/location/1-11162790397,York,,Worker (A rating),2021-07-26,2023-10-13,Deeper Care Solutions Ltd,Active,935,Bad
Tendercare Management Ltd,246-250,Romford Road,E7 9HZ,,https://www.cqc.org.uk/location/1-7680103385,London,,Worker (A rating),2021-04-09,2023-08-18,Tendercare Management Ltd,Active,1006,Bad
Mi Casa Care Ltd (Responsive Care Group),The Grange,Ossington,NG23 6LQ,https://www.micasacare.co.uk,https://www.cqc.org.uk/location/1-5778915584,Newark,,Worker (A rating),2022-01-12,2024-04-30,Mi Casa Care Ltd,Active,921,Bad
Aspire Home Carers (Ramsgate) Ltd,Discovery Park,Ramsgate Rd,CT13 9FF,,https://www.cqc.org.uk/location/1-15103901784,Sandwich,,Worker (A rating),2023-06-26,2023-11-02,Aspire Home Carers (Ramsgate) Limited,Active,171,Good
Dobix Healthcare Ltd,"Victory House, 400 Pavilion Drive",,NN4 7PA,https://www.dobixhealthcare.co.uk,https://www.cqc.org.uk/location/1-6322763538,Northampton,,Worker (A rating),2022-06-01,2024-03-01,Dobix Healthcare Ltd,Active,723,Medium
Edith Healthcare Wolverhampton,S2 Regent House,Bath Avenue,WV1 4EG,,https://www.cqc.org.uk/location/1-9006652069,Wolverhampton,,Worker (A rating),2023-08-04,2023-11-02,Edith Healthcare Wolverhampton Limited,Active,138,Good
Supporting Care,19 Morris Road,,E14 6FF,https://www.supportingcare.co.uk,https://www.cqc.org.uk/location/1-2500418677,London,,Worker (A rating),2021-07-26,2023-05-05,Supporting Care Ltd,Active,765,Bad
UK Caring Services,101 Lockhurst Lane,,CV6 5SF,https://www.ukcaringservices.co.uk,https://www.cqc.org.uk/location/1-4148094871,Coventry,West Midlands,Worker (A rating),2022-05-06,2024-03-01,UK Caring Services Limited,Active,747,Medium
Case Healthcare,3 North Street,Oadby,LE2 5AH,,https://www.cqc.org.uk/location/1-11095362835,Leicester,,Worker (A rating),2022-05-06,2024-01-02,Case Healthcare Limited,Active,662,Good
Nation Care Agency,"Unit 1, Spruce House",Durham Wharf Drive,TW8 8HR,,https://www.cqc.org.uk/location/1-150055480,Brentford,,Worker (A rating),2022-04-12,2022-11-22,Nation Care Agency Ltd,Active,317,Medium
Homesaints Limited,Bedford Business Centre 61-63,St. Peters Street,MK40 2PR,https://homesaints.co.uk,https://www.cqc.org.uk/location/1-10876245685,Bedford,,Worker (A rating),2023-01-24,2024-04-30,Homesaints Limited,Active,536,Medium
Highlands Care Solutions,8-9 Oxford Street,,SO14 3DJ,,https://www.cqc.org.uk/location/1-8089319852,Southampton,,Worker (A rating),2021-04-09,2022-11-01,Highlands Care Solutions Ltd,Active,723,Bad
Lionheart Domiciliary Care Services,"Suite 2, Second Floor,Marshall House",Ring Way,PR1 2QD,,https://www.cqc.org.uk/location/1-11803254125,Preston,,Worker (A rating),2020-07-27,2021-09-30,Lionheart Domiciliary Care Services Limited,Active,-,-
Fountain Based Ltd,31 Manor Square,,RM8 3RU,https://www.fountainbased.com,https://www.cqc.org.uk/location/1-5846846706,Dagenham,,Worker (A rating),2022-08-09,2024-01-02,Fountain Based Limited,Active,612,Medium
Care 4 You Direct Limited,"Wicked House, Office 2",56 Wilbury Way,SG4 0TP,https://www.care4youdirect.com,https://www.cqc.org.uk/location/1-11092209660,Hitchin,,Worker (A rating),2022-04-12,2024-03-01,Care 4 You Direct Limited,Active,779,Medium
Axis Healthcare Ltd,"Regus, Regus House","Fairbourne Drive, Atterbury",MK10 9RG,https://www.axishealthcare.co.uk,https://www.cqc.org.uk/location/1-5447913580,Milton Keynes,,Worker (A rating),2022-05-06,2024-03-01,Axis Healthcare Ltd,Active,747,Medium
The Nurse International Ltd,202 Deykin Avenue,,B6 7BH,,https://www.cqc.org.uk/location/1-2233623172,Birmingham,,Worker (A rating),2021-07-26,2023-11-02,The Nurse International Ltd,Active,968,Bad
Bromley,Kent House,41 East Street,BR1 1QQ,https://www.elitecareplus.co.uk,https://www.cqc.org.uk/location/1-2598387861,Bromley,Kent,Worker (A rating),2022-10-17,2024-03-01,Elite Careplus Ltd,Active,576,Medium
Oaktree Homecare Services Limited,30 High Road,,N2 9PJ,https://www.oaktreehomecare.co.uk,https://www.cqc.org.uk/location/1-6751217167,London,,Worker (A rating),2022-08-26,2024-01-02,Oaktree Homecare Services Limited,Active,543,Good
Macadamia Support,8 Ballinghall Close,,MK41 0AB,https://www.macadamiasupport.co.uk,https://www.cqc.org.uk/location/1-2519058765,Bedford,,Worker (A (SME+)),2022-01-12,2024-03-01,Macadamia Support Limited,Active,908,Bad
Royalcare Ashford,Suite32 Williamson House,,TN23 6LW,https://www.royalcare24.co.uk,https://www.cqc.org.uk/location/1-9580391323,Ashford,,Worker (A rating),2021-07-26,2024-03-01,Sreevijay Ltd,Active,1115,Bad
KOPE-MEDICS LTD,Unit 41 St Olav's Court,"City Business Centre, 25 Lower Road",SE16 2XB,,https://www.cqc.org.uk/location/1-9863777934,London,,Worker (A rating),2021-11-02,2023-06-15,Kope-Medics Ltd,Active,632,Good
New Pathways Healthcare Limited,"Office 7, Second Floor, Union House",7 Union Street,SP10 1PA,https://www.newpathwayshealthcare.co.uk,https://www.cqc.org.uk/location/1-10575837481,Andover,,Worker (A rating),2021-09-30,2023-08-18,New Pathways Healthcare Limited,Active,765,Medium
Lionheart Domiciliary Care Services Limited - Deptford,"Unit 7A, Evelyn Court","Deptford Park Business Centre, Grinstead Road",SE8 5AD,https://www.lionheartdomiciliary.co.uk,https://www.cqc.org.uk/location/1-2932397343,London,,Worker (A rating),2020-07-27,2021-09-30,Lionheart Domiciliary Care Services Limited,Active,-,-
Springfield,Springfield House,Perrancoombe,TR6 0JA,https://www.switchedoncare.com,https://www.cqc.org.uk/location/1-2732746375,Perranporth,Cornwall,Worker (A rating),2020-07-27,2023-07-05,Green Light PBS Limited,Active,-,-
Ajustar 24 Care Ltd,The Lansdowne Building,2 Lansdowne Road,CR9 2ER,,https://www.cqc.org.uk/location/1-10199545703,Croydon,Surrey,Worker (A rating),2023-01-24,2024-03-01,Ajustar 24 Care Ltd,Active,523,Medium
Gracious Healthcare Services Ltd,592 Bloxwich Road,,WS3 2XE,https://www.gracioushealthcare.co.uk,https://www.cqc.org.uk/location/1-10272518016,Walsall,,Worker (A rating),2021-11-02,2023-06-01,Gracious Healthcare Services Ltd,Active,621,Good
Royalcare- Thanet,Kent Innovation Centre,"Millennium Way, Thanet Reach Business Park",CT10 2QQ,https://www.royalcare24.co.uk,https://www.cqc.org.uk/location/1-10087632956,Broadstairs,Kent,Worker (A rating),2021-07-26,2024-03-01,Sreevijay Ltd,Active,1115,Bad
Comfort Care Recruitment and Training Limited,310 High Street,,CR0 1NG,https://www.comfortrecruitmentltd.com,https://www.cqc.org.uk/location/1-4677718030,Croydon,,Worker (A rating),2022-04-12,2023-11-02,Comfort Care Recruitment and Training Limited,Active,632,Good
Expert Care Worcester,"Park House, 1-4 Park Terrace","2nd Floor, Suite 4",KT4 7JZ,,https://www.cqc.org.uk/location/1-10086441080,Worcester Park,,Worker (A rating),2022-08-09,2024-03-01,Expert Care Solutions Ltd,Active,697,Medium
Veracity Healthcare,Waffle 21 Colonial House,Swinemoor Lane,HU17 0LS,https://www.veracityhealthcare.org,https://www.cqc.org.uk/location/1-7985957323,Beverley,,Worker (A rating),2022-01-12,2024-03-01,Veracity Healthcare Limited,Active,908,Bad
SureCare (Reading & East Berkshire),62 Portman Road,,RG30 1EA,https://www.surecarereading.co.uk,https://www.cqc.org.uk/location/1-1074133755,Reading,Berkshire,Worker (A rating),2021-11-02,2023-10-02,Care Label Ltd,Active,741,Good
AmberGreen Health & Social Care,"AW House, 1st Floor,6-8 Stuart Street",Bedfordshire,LU1 2SJ,https://www.ambergreencare.co.uk,https://www.cqc.org.uk/location/1-4646684845,Luton,,Worker (A rating),2021-07-26,2024-01-02,AmberGreen Health & Social Care Ltd,Active,1030,Bad
Rainbow Outreach and Healthcare Solutions Limited Cambridgeshire,"Gibson House, Ermine Business Park",Lancaster Way,PE29 6XU,,https://www.cqc.org.uk/location/1-8583912088,Huntingdon,,Worker (A rating),2022-01-12,2024-02-05,Rainbow Outreach and Healthcare Solutions Limited,Active,844,Bad
Paula Integrated Care Limited,St. James House,Pendleton Way,M6 5FW,https://www.paulaintegratedcare.healthcare,https://www.cqc.org.uk/location/1-9861503241,Salford,,Worker (A rating),2023-01-24,2024-01-02,Paula Integrated Care Limited,Active,438,Medium
Phoenix Care Support Services,37 Victoria Road,,RM1 2LH,,https://www.cqc.org.uk/location/1-8251228746,Romford,,Worker (A rating),2023-01-24,2024-01-02,PHOENIX CARE SUPPORT SERVICES LIMITED,Active,438,Medium
Paradise Care Ltd,"Office 8, The Colchester Business Centre,",1 George Williams Way,CO1 2JS,https://www.paradisecareltd.com,https://www.cqc.org.uk/location/1-9072960825,Colchester,,Worker (A rating),2022-04-12,2024-03-01,Paradise Care Ltd,Active,779,Medium
Surrey,34 Angus Close,,KT9 2BP,https://www.teamcarita.co.uk,https://www.cqc.org.uk/location/1-4056905157,Chessington,Surrey,Worker (A rating),2020-10-29,2023-11-02,Team Carita DCS Limited,Active,1224,Bad
Miracle Care Centre NLHC,G18 Ashington Workspace,Litonville Parkway,NE63 9JZ,https://www.miraclecarecentre.co.uk,https://www.cqc.org.uk/location/1-11565030590,Ashington,,Worker (A rating),2022-04-12,2023-09-25,Miracle Centre Limited,Active,568,Good
Siete Care Services,6 South Bar Street,,OX16 9AA,,https://www.cqc.org.uk/location/1-3175920762,Banbury,,Worker (A rating),2021-11-02,2023-06-15,Siete Ltd,Active,632,Good
Bethal Manna Care Ltd,7 Dartford Business Park,Victoria Road,DA1 5FS,,https://www.cqc.org.uk/location/1-7060366080,Dartford,,Worker (A rating),2022-05-06,2024-01-02,Bethal Manna Care Ltd,Active,662,Good
Sure Grace Ministries Care Agencies,75-79 Plumstead High Street,Plumstead,SE18 1SB,https://www.sgmcare.co.uk,https://www.cqc.org.uk/location/1-6877382949,London,,Worker (A rating),2023-04-19,2024-01-02,Sure Grace Ministries Care Agencies Limited,Active,327,Medium
Fresh Haven Healthcare Ltd,3 D Old Library,Trinity Road,BS2 0NW,https://www.freshhavenhealthcare.com,https://www.cqc.org.uk/location/1-9291762165,Bristol,,Worker (A rating),2022-05-06,2024-03-01,Fresh Haven Healthcare Ltd,Active,747,Medium
Momo & Tarek Care Limited,"Building B Room S9 Enterprise Park, Courtaulds Way",,CV6 5NX,https://www.momoandtarek.co.uk,https://www.cqc.org.uk/location/1-9104820693,Coventry,,Worker (A rating),2022-08-09,2023-08-18,Momo & Tarek Care Limited,Active,455,Medium
Newham,102 Rathbone Street,Canning Town,E16 1JQ,https://www.marylandcareagency.co.uk,https://www.cqc.org.uk/location/1-399067189,London,,Worker (A rating),2022-01-12,2023-12-05,Maryland Care Agency Limited,Active,789,Bad
Destiney Social Care Provider,Unit D23,"Alison Centre, 39 Alison Crescent",S2 1AS,,https://www.cqc.org.uk/location/1-11724649124,Sheffield,,Worker (A rating),2022-08-09,2024-03-01,Destiney Social Care Provider Ltd,Active,697,Medium
Caring Hands Nottingham Ltd,46 Huntingdon House,278-290 Huntingdon Street,NG1 3LY,,https://www.cqc.org.uk/location/1-5491643204,Nottingham,,Worker (A rating),2022-01-12,2024-01-02,Caring Hands Nottingham Ltd,Active,823,Bad
Sunderland Supported Living Service,Leechmere Centre,"Claymere Road, Leechmere Industrial Estate",SR2 9TQ,,https://www.cqc.org.uk/location/1-8424032823,Sunderland,Tyne And Wear,Worker (A rating),2020-07-27,2023-10-02,Sunderland City Council,Active,-,-
Reablement - Urgent Homecare and Falls Response Service,Priory House,"Monks Walk, Chicksands",SG17 5TQ,,https://www.cqc.org.uk/location/1-1705575770,Shefford,Bedfordshire,Worker (A rating),2020-07-27,2021-04-09,Central Bedfordshire Council,Active,-,-
Profad Care Agency,Unit 3 & 5,1 Bethwin Road,SE5 0SH,https://www.profadcareagency.co.uk,https://www.cqc.org.uk/location/1-3062887465,London,,Worker (A rating),2023-01-24,2024-03-01,Profad Care Agency Limited,Active,523,Medium
Medacs Healthcare Greater Manchester,"Suite 3, 1st Floor, Anchorage One, Anchorage Quay",Salford Quays,M50 3YJ,https://www.medacs.com,https://www.cqc.org.uk/location/1-2018371037,Greater Manchester,,Worker (A rating),2020-07-27,2022-02-16,Medacs Healthcare PLC,Active,-,-
Kwikfix Recruitment Services Peterborough Branch,42 Second Drove,Fengate Park,PE1 5XA,https://www.kwikcareservices.com,https://www.cqc.org.uk/location/1-7114830653,Peterborough,,Worker (A rating),2021-07-26,2023-11-02,Kwikfix Recruitment Services Limited,Active,968,Bad
Namron Care Provider Ltd,1 Holly Street,,LN5 8RS,https://www.namronhealthcare.co.uk,https://www.cqc.org.uk/location/1-451629282,Lincoln,,Worker (A rating),2023-04-19,2023-12-05,Namron Care Provider Ltd,Active,293,Medium
He Reigns Healthcare Services Ltd,EasyHub,22 Addiscombe Road,CR0 5PE,https://www.hereignshealthcare.com,https://www.cqc.org.uk/location/1-6386290326,Croydon,,Worker (A rating),2022-05-06,2024-03-01,HE Reigns Healthcare Services Ltd,Active,747,Medium
Intrinsic Care,6 Chestnut Avenue,,ME5 9AJ,https://www.theintrinsiccaregroup.com,https://www.cqc.org.uk/location/1-4776781915,Chatham,,Worker (A rating),2021-04-09,2024-03-01,The Intrinsic Care Group Limited,Active,1248,Bad
Woodlands Care Home,84 Long Lane,,UB10 8SX,,https://www.cqc.org.uk/location/1-2248733522,Uxbridge,Middlesex,Worker (A rating),2020-07-27,2022-11-22,The Woodlands Care Home Limited,Active,-,-
Vista Business Centre,50 Salisbury Road,,TW4 6JQ,https://www.ukstarcare.co.uk.,https://www.cqc.org.uk/location/1-2778133165,Hounslow,Middlesex,Worker (A rating),2021-07-26,2024-03-01,UK Star Care Ltd,Active,1115,Bad
Sunderland Community Support Service,Leechmere Centre,"Leechmere Industrial Estate, Carrmere Road",SR2 9TQ,,https://www.cqc.org.uk/location/1-1336734451,Sunderland,Tyne and Wear,Worker (A rating),2020-07-27,2023-10-02,Sunderland City Council,Active,-,-
TPS Healthcare,54B Barkstone House,Croydon Street,LS11 9RT,https://www.teampersonnelsolutions.co.uk,https://www.cqc.org.uk/location/1-154214570,Leeds,West Yorkshire,Worker (A rating),2022-04-12,2024-03-01,Team Personnel Solutions Limited,Active,779,Medium
Compkey Healthcare Ltd,"Fourways Community Centre, 116 Stevenson Road",,NR5 8TN,https://www.compkeyhealthcare.co.uk,https://www.cqc.org.uk/location/1-1924599784,Norwich,,Worker (A rating),2021-04-09,2023-08-18,CompKey Healthcare Ltd,Active,1006,Bad
Eureka Care Services Limited,15 Bull Plain,,SG14 1DX,https://www.eurekacareservices.co.uk,https://www.cqc.org.uk/location/1-4390168127,Hertford,,Worker (A rating),2021-09-30,2023-12-05,Eureka Care Services Limited,Active,888,Medium
Raynes Healthcare Ltd,NBV Enterprise Centre,"6 David Lane, Old Basford",NG6 0JU,https://www.rayneshealthcare.co.uk,https://www.cqc.org.uk/location/1-12813784454,Nottingham,,Worker (A rating),2022-02-16,2024-03-01,Raynes Healthcare Ltd,Active,837,Medium
Medacs Healthcare - London,First Floor,"54-56, Lewisham High Street",SE13 5JH,,https://www.cqc.org.uk/location/1-1762152878,London,,Worker (A rating),2020-07-27,2022-02-16,Medacs Healthcare PLC,Active,-,-
New Hope Care Leicester,70-72 Market Street,,LE65 1AN,,https://www.cqc.org.uk/location/1-13727045295,Ashby-de-la-zouch,,Worker (A rating),2023-01-24,2023-08-11,New Hope Care Ltd,Active,267,Medium
Good Oaks Home Care,Unit 2 Old Generator House,25 Bourne Valley Road,BH12 1DZ,https://www.goodoakshomecare.co.uk,https://www.cqc.org.uk/location/1-2006645907,Poole,,Worker (A rating),2022-01-12,2022-06-01,Good Oaks Home Care Limited,Active,278,Bad
Lavender Care Agency Ltd,164 Stafford Road,,SM6 9BS,,https://www.cqc.org.uk/location/1-4882553208,Wallington,,Worker (A rating),2022-03-11,2023-12-05,Lavender Care Agency Limited,Active,683,Good
Rainbow Outreach and Healthcare Solutions Limited,"Suite 28, Unit 6","County Business Park, Darlington Road",DL6 2NQ,https://www.rainbowoutreachandhealthcare.co.uk,https://www.cqc.org.uk/location/1-5801302321,Northallerton,,Worker (A rating),2022-01-12,2024-02-05,Rainbow Outreach and Healthcare Solutions Limited,Active,844,Bad
Medacs Healthcare - Leicester,7 Westleigh Business Park,"Winchester Avenue, Blaby",LE8 4EZ,https://www.medacs.co.uk,https://www.cqc.org.uk/location/1-307072344,Leicester,Leicestershire,Worker (A rating),2020-07-27,2022-02-16,Medacs Healthcare PLC,Active,-,-
1st Class Care Services2 Ltd,3 The Southend,,HR8 2EY,https://www.1stclasscareservices.co.uk,https://www.cqc.org.uk/location/1-2210769079,Ledbury,,Worker (A rating),2023-03-06,2024-04-30,1st Class Care Services2 Ltd,Active,458,Good
Yellowstone Healthcare Ltd,"Unit G12, Waterfront Studios Business Centre",1 Dock Road,E16 1AG,,https://www.cqc.org.uk/location/1-4341131778,London,,Worker (A rating),2023-02-08,2023-11-02,Yellowstone Healthcare Ltd,Active,313,Good
Sunderland Shared Lives,"Leechmere Centre, Leechmere Industrial Estate, Carrmere Road",Sunderland,SR2 9TQ,https://www.sunderland.gov.uk,https://www.cqc.org.uk/location/1-5635166075,Tyne and Wear,,Worker (A rating),2020-07-27,2023-10-02,Sunderland City Council,Active,-,-
Reliable Personnel Limited,32 Crown Lane,,SM4 5BL,https://www.reliablepersonnel.co.uk,https://www.cqc.org.uk/location/1-128295096,Morden,Surrey,Worker (A rating),2022-08-09,2024-01-02,Reliable Personnel Limited,Active,612,Medium
Ultimate Group Services East Midlands Limited,"Unit F7, Carlton Road Business Centre",27-31 Carlton Road,NG3 2DG,https://www.ultimategroupservices.co.uk,https://www.cqc.org.uk/location/1-5551887050,Nottingham,,Worker (A rating),2022-01-12,2024-03-01,Ultimate Group Services East Midlands Limited,Active,908,Bad
Realcare+ Limited,58 St. Marys Butts,,RG1 2LG,https://www.realcareworld.com,https://www.cqc.org.uk/location/1-453553615,Reading,,Worker (A rating),2020-07-27,2023-11-02,Realcare + Limited,Active,-,-
Mercury Care Services Ltd,"781-781a, London Road",,CR7 6AW,,https://www.cqc.org.uk/location/1-2034829862,Thornton Heath,,Worker (A rating),2022-10-17,2024-03-01,Mercury Care Services Limited,Active,576,Medium
Bridge-it Options Ltd,Sybil's Place,Ashford Hill,RG19 8BG,https://www.bridge-it-options.org,https://www.cqc.org.uk/location/1-2366935818,Thatcham,Berkshire,Worker (A rating),2022-08-09,2023-12-05,Bridge-it Options Ltd,Active,578,Medium
High Street Sandy,87 High Street,,SG19 1AL,,https://www.cqc.org.uk/location/1-344173174,Sandy,Bedfordshire,Worker (A rating),2020-07-27,2021-04-09,Central Bedfordshire Council,Active,-,-
Frogmore Road,23 Frogmore Road,,LU5 5FX,,https://www.cqc.org.uk/location/1-344173032,Houghton Regis,Bedfordshire,Worker (A rating),2020-07-27,2021-04-09,Central Bedfordshire Council,Active,-,-
Remark! Living,18 Leather Lane,,EC1N 7SU,,https://www.cqc.org.uk/location/1-782711290,London,,Worker (A rating),2020-07-27,2022-10-17,Remark! LTD,Active,-,-
Sunrise Healthcare Ltd,"DBH 21, Diss Business Park",Hopper Way,IP22 4GT,,https://www.cqc.org.uk/location/1-2190108554,Diss,,Worker (A rating),2021-09-30,2024-03-01,Sunrise Healthcare Ltd,Active,1007,Medium
New Hope Care Stockport,"Europa Business Park, Building 67","Office F15, Bird Hall Lane",SK3 0XA,,https://www.cqc.org.uk/location/1-13727045368,Stockport,,Worker (A rating),2023-01-24,2023-08-11,New Hope Care Ltd,Active,267,Medium
The Good Care Group,120 Leman Street,,E1 8EU,https://www.thegoodcaregroup.com,https://www.cqc.org.uk/location/1-1489174477,London,,Worker (A rating),2020-07-27,2022-03-11,The Good Care Group London Limited,Active,-,-
Harrow Carers,376-378 Pinner Road,,HA2 6DZ,https://www.harrowcarers.org,https://www.cqc.org.uk/location/1-2290286848,North Harrow,Middlesex,Worker (A rating),2022-03-11,2024-02-05,Harrow Carers,Active,738,Good
Springwood Healthcare Services Ltd,36 Warrens Shawe Lane,,HA8 8FX,https://www.springwoodhealthcare.org,https://www.cqc.org.uk/location/1-243791244,Edgware,Middlesex,Worker (A rating),2021-09-30,2023-10-13,Springwood Healthcare Services Ltd,Active,827,Medium
2M Health & Home Care Services Ltd - Birmingham,"Office 4, 8 & 11 Sandwell Business Development Centre",Oldbury Road,B66 1NN,https://www.2mhealthandhomecare.co.uk,https://www.cqc.org.uk/location/1-1057114714,Smethwick,,Worker (A rating),2022-06-01,2024-03-01,2M Health & Home Care Services Ltd,Active,723,Medium
Consultus Care And Nursing Ltd,4 London Road,,TN10 3AB,https://www.consultuscare.com,https://www.cqc.org.uk/location/1-120788654,Tonbridge,,Worker (A rating),2022-04-12,2023-08-18,Consultus Care and Nursing Ltd,Active,537,Good
New Direction Support,Old Court,"Tavistock Road, Roborough",PL6 7BD,https://www.premiercareplymouth.co.uk,https://www.cqc.org.uk/location/1-1247264615,Plymouth,,Worker (A rating),2023-01-24,2023-11-02,Premier Care (Plymouth) Limited,Active,376,Medium
Henley Care Limited,9-11,Greys Road,RG9 1SB,https://www.henleycare.co.uk,https://www.cqc.org.uk/location/1-341050669,Henley-on-thames,,Worker (A rating),2021-11-02,2023-02-08,Henley Care Limited,Active,520,Good
Olive Tree Services,57-59 High Street,,OX28 6JA,https://www.olivetreeservices.co.uk,https://www.cqc.org.uk/location/1-2170964410,Witney,Oxfordshire,Worker (A rating),2022-08-26,2024-04-30,CT Creative Solutions Ltd,Active,641,Good
Sulem Care Limited,66 Long Lane,Walton,L9 7BN,,https://www.cqc.org.uk/location/1-11584439046,Liverpool,,Worker (A rating),2022-09-02,2024-01-02,Sulem Care Limited,Active,526,Good
Angels Care Solutions,Unit 214 Barking Enterprise Centre,50 Cambridge Road,IG11 8FG,https://www.angelscaresolutions.co.uk,https://www.cqc.org.uk/location/1-3827655866,Barking,Essex,Worker (A rating),2022-05-06,2024-03-01,Angels Care Solutions Limited,Active,747,Medium
Oceans Care Services Limited,1-7 Langleys Road,,B29 6HR,,https://www.cqc.org.uk/location/1-2128040235,Birmingham,West Midlands,Worker (A rating),2022-04-12,2024-03-01,Oceans Care Services Ltd,Active,779,Medium
New Hope Care Hereford,3 Jubilee Building,Faraday Road,HR4 9BB,,https://www.cqc.org.uk/location/1-13727045202,Hereford,,Worker (A rating),2023-01-24,2023-08-11,New Hope Care Ltd,Active,267,Medium
Courage Limited,6-8,Stuart Street,LU1 2SJ,https://www.courage4u.co.uk,https://www.cqc.org.uk/location/1-2517177985,Luton,,Worker (A rating),2021-07-26,2024-02-05,Courage Limited,Active,1051,Bad
New Hope Care Coventry,Room S4 Enterprise House,"Foleshill Enterprise Park, Courtaulds Way",CV6 5NX,,https://www.cqc.org.uk/location/1-13726394145,Coventry,West Midlands,Worker (A rating),2023-01-24,2023-08-11,New Hope Care Ltd,Active,267,Medium
Woodhurst,88 Woodhurst Avenue,,WD25 9RW,,https://www.cqc.org.uk/location/1-1977199841,Watford,Hertfordshire,Worker (A rating),2022-05-06,2023-09-01,New Directions Flexible Social Care Solutions Ltd,Active,512,Good
Integral Care Solutions Limited,"Unit 8, Adams House, Northampton Science Park","Kings Park Road, Moulton Park Industrial Estate",NN3 6LG,https://www.integralcare.co.uk,https://www.cqc.org.uk/location/1-2515205486,Northampton,,Worker (A rating),2022-01-12,2023-06-01,Integral Care Solutions Limited,Active,588,Bad
Healthy Homecare Services Ltd,43 Woodville Road,,PE21 8AR,,https://www.cqc.org.uk/location/1-2551493549,Boston,Lincolnshire,Worker (A rating),2021-09-30,2024-03-01,Healthy Home Care Services Ltd,Active,1007,Medium
Trustlink Care Services Ltd,86 Victoria Road,,ST4 2JX,https://www.trustlinkcareservices.co.uk,https://www.cqc.org.uk/location/1-11313209470,Stoke-on-trent,,Worker (A rating),2022-10-17,2024-03-01,Trustlink Care Services Ltd,Active,576,Medium
New Directions - Supported Living,Office 5 The Maylands Building,"Maylands Avenue, Hemel Hempstead",HP2 7TG,,https://www.cqc.org.uk/location/1-11344287222,Hemel Hempstead,,Worker (A rating),2022-05-06,2023-09-01,New Directions Flexible Social Care Solutions Ltd,Active,512,Good
Chislehurst Healthcare Ltd,39 High Street,,BR7 5AE,https://www.chislehursthealthcare.co.uk,https://www.cqc.org.uk/location/1-11188426198,Chislehurst,,Worker (A rating),2023-02-08,2024-01-02,Chislehurst Healthcare Ltd,Active,375,Good
Progressive Support Services Ltd,Bizbub Castlemill,Burnt Tree,DY4 7UF,,https://www.cqc.org.uk/location/1-10877228578,Tipton,,Worker (A rating),2021-04-09,2024-01-02,Progressive Support Services Ltd,Active,1163,Bad
Ebenezer Care Services,"S/C 2-5, Ivy Business Centre","Crown Street, Failsworth",M35 9BG,,https://www.cqc.org.uk/location/1-10024040008,Manchester,,Worker (A rating),2023-04-19,2024-01-02,Ebenezer Care Services Limited,Active,327,Medium
ALWAYS HEALTHCARE LTD,47 Rushey Green,,SE6 4AS,,https://www.cqc.org.uk/location/1-10128881655,London,,Worker (A rating),2023-01-24,2024-04-30,Always Healthcare Recruitment Agency Ltd,Active,536,Medium
Clover Healthcare Services - Main Office,Wilsons Park,Monsall Road,M40 8WN,,https://www.cqc.org.uk/location/1-10415480834,Manchester,Lancashire,Worker (A rating),2022-10-17,2023-06-15,Clover Healthcare Services Ltd,Active,267,Good
Premiere Advantage Ltd,206s Castlemill,Burnt Tree,DY4 7UF,,https://www.cqc.org.uk/location/1-12161473956,Tipton,,Worker (A rating),2022-04-12,2023-01-24,Premiere Advantage Ltd,Active,332,Good
Whitechapel,93-101 Greenfield Road,,E1 1EJ,https://www.blessedcarelegacy.co.uk,https://www.cqc.org.uk/location/1-12027950269,London,,Worker (A rating),2023-04-19,2023-11-02,Blessed Care Legacy Ltd,Active,265,Medium
Resilience Care,"Unit 7, Enterprise House","Foleshill Enterprise Park, Courtaulds Way",CV6 5NX,https://www.resiliencehcp.com,https://www.cqc.org.uk/location/1-12245897645,Coventry,,Worker (A rating),2023-01-24,2023-12-05,Resilience HCP Ltd,Active,404,Medium
Arch West Midlands,55 Cherry Tree Avenue,,WS5 4JN,https://www.arch-futures.org,https://www.cqc.org.uk/location/1-12427547986,Walsall,,Worker (A rating),2023-09-15,2023-11-02,Arch Futures Ltd,Active,86,Good
MPC Healthcare Group Ltd,5 Blackburn Close,,NG31 8RY,,https://www.cqc.org.uk/location/1-12490847070,Grantham,Lincolnshire,Worker (A rating),2023-03-06,2024-03-01,MPC Healthcare Group Ltd,Active,445,Medium
Candela Healthcare Ltd,"No. 5A, Former Magistrates Court",Gaol Street,HR1 2HU,,https://www.cqc.org.uk/location/1-12566526711,Hereford,,Worker (A rating),2023-03-06,2024-03-01,Candela Healthcare Ltd,Active,445,Medium
Norfolk and Suffolk Healthcare Limited,Suite 11,"Saracens Business Centre, 25 St. Margarets Green",IP4 2BN,,https://www.cqc.org.uk/location/1-11523386035,Ipswich,,Worker (A rating),2022-08-09,2024-03-01,Norfolk and Suffolk Healthcare Limited,Active,697,Medium
Living Waters Services Ltd,4 Orchard Court,Harry Weston Road,CV3 2TQ,https://www.livingwatersltd.co.uk,https://www.cqc.org.uk/location/1-13030803511,Coventry,,Worker (A rating),2021-07-26,2024-03-01,Living Waters Services Ltd,Active,1115,Bad
Inspire Care Agencies Limited,10 Quarry Hill Parade,,TN9 2HR,,https://www.cqc.org.uk/location/1-14138578592,Tonbridge,,Worker (A rating),2023-06-15,2024-03-01,Inspire Care Agencies Limited,Active,332,Medium
BodFem Care Ltd,Regus Building,Park Road,WD3 1RE,https://www.bodfemcare.co.uk,https://www.cqc.org.uk/location/1-13911471904,Rickmansworth,,Worker (A rating),2023-01-24,2024-03-01,Bodfem Care Limited,Active,523,Medium
SuppLiCan Care and Support,Flat 4,"Witley, 387 Sandbanks Road",BH14 8HR,https://www.supplican.co.uk,https://www.cqc.org.uk/location/1-13939471595,Poole,,Worker (A rating),2023-03-13,2023-09-08,Supplican Group Ltd,Active,191,Good
His Grace And Mercy Services Ltd,"504, K G Business Centre","Kingsfield Close, Kings Heath Industrial Estate",NN5 7QS,https://www.hgmscare.co.uk,https://www.cqc.org.uk/location/1-13941332717,Northampton,,Worker (A rating),2023-04-19,2023-12-05,His Grace And Mercy Services Ltd,Active,293,Medium
MoreCare Services UK Ltd - Nottingham,3 Hawksworth Street,,NG3 2EG,,https://www.cqc.org.uk/location/1-13943193912,Nottingham,Nottinghamshire,Worker (A rating),2021-04-09,2021-04-09,Morecare Services (Uk) Ltd,Active,239,Bad
MoreCare Services UK Ltd - Preston,71 Garstang Road,,PR1 1LB,,https://www.cqc.org.uk/location/1-13943193970,Preston,Lancashire,Worker (A rating),2021-04-09,2021-04-09,Morecare Services (Uk) Ltd,Active,239,Bad
Profad Care Agency Bromley,1 Elmfield Park,,BR1 1LU,,https://www.cqc.org.uk/location/1-13946622674,Bromley,,Worker (A rating),2023-01-24,2024-03-01,Profad Care Agency Limited,Active,523,Medium
Profad Care Agency Nottingham,Huntingdon House 278-290,Huntingdon Street,NG1 3LY,,https://www.cqc.org.uk/location/1-13931244542,Nottingham,,Worker (A rating),2023-01-24,2024-03-01,Profad Care Agency Limited,Active,523,Medium
Kreative Care Ltd,1 Cawdron Close,Dalton,S65 3HH,,https://www.cqc.org.uk/location/1-15062897960,Rotherham,,Worker (A rating),2023-05-05,2024-01-02,Kreative Care Ltd,Active,283,Good
Morecare Services (Uk) Ltd - East Sussex,"Pine Grove Enterprise Centre, Office 46",Pine Grove,TN6 1DH,https://www.morecareservices.co.uk,https://www.cqc.org.uk/location/1-15086194574,Crowborough,,Worker (A rating),2021-04-09,2021-04-09,Morecare Services (Uk) Ltd,Active,239,Bad
Jay and Noah Healthcare,St. Pauls House,23 Park Square South,LS1 2ND,,https://www.cqc.org.uk/location/1-16993333356,Leeds,,Worker (A rating),2023-03-06,2024-01-02,Jay and Noah Healthcare Ltd,Active,360,Good
Responsive Healthcare Ltd,"Suite 9, Pure Offices","Midshires Business Park, Smeaton Close",HP19 8HL,https://responsivehealthcare.co.uk,https://www.cqc.org.uk/location/1-14638496733,Aylesbury,,Worker (A rating),2023-03-06,2023-12-05,Responsive Healthcare Ltd,Active,326,Good
Global M'ckarm International Care Services Limited,Unit 62,"Midshires Business Park, Smeaton Close",HP19 8HL,,https://www.cqc.org.uk/location/1-14685402919,Aylesbury,,Worker (A rating),2023-05-05,2024-03-01,Global M'ckarm International Care Services Limited,Active,368,Medium
Paula Integrated Care Milton Keynes,Technology House,151 Silbury Boulevard,MK9 1LH,,https://www.cqc.org.uk/location/1-14689629741,Milton Keynes,,Worker (A rating),2023-01-24,2024-01-02,Paula Integrated Care Limited,Active,438,Medium
216 High Road,216 High Road,,RM6 6LS,,https://www.cqc.org.uk/location/1-14856928938,Romford,,Worker (A rating),2021-04-09,2022-11-01,Swift SF Limited,Active,723,Bad
KASHFAM LIMITED,26 West Street,,RH2 9BX,,https://www.cqc.org.uk/location/1-14865011790,Reigate,,Worker (A rating),2023-04-19,2023-11-02,KASHFAM LIMITED,Active,265,Medium
Light Care Services Limited Hampshire,Basepoint Business Centre,Harts Farm Way,PO9 1HS,,https://www.cqc.org.uk/location/1-14865124199,Havant,,Worker (A rating),2023-01-24,2023-12-05,Light Care Services Limited,Active,404,Medium
Expert Care Solutions Ltd Bournemouth,Old Library House,4 Dean Park Crescent,BH1 1LY,https://www.expertcaresolutionsltd.co.uk,https://www.cqc.org.uk/location/1-14879596643,Bournemouth,,Worker (A rating),2022-08-09,2024-03-01,Expert Care Solutions Ltd,Active,697,Medium
Bithoms Care Office,"Studio 6, Action House",53 Sandgate Street,SE15 1LE,,https://www.cqc.org.uk/location/1-14214152228,London,,Worker (A rating),2023-01-24,2024-01-02,Bithoms Support Services Ltd,Active,438,Medium
Gorton Mill House,420 Abbey Hey Lane,,M18 8DU,https://www.medacs.com/homecare,https://www.cqc.org.uk/location/1-14248572482,Manchester,,Worker (A rating),2020-07-27,2022-02-16,Medacs Healthcare PLC,Active,-,-
London Academy & Recruitment Centre Ltd,G10 Expressway,1 Dock Road,E16 1AH,,https://www.cqc.org.uk/location/1-15183065629,London,,Worker (A rating),2023-05-16,2023-11-02,London Academy & Recruitment Centre Ltd,Active,212,Good
AJ Zion Limited,"Suite 5, 319a",Holdenhurst Road,BH8 8BT,,https://www.cqc.org.uk/location/1-18074004202,Bournemouth,,Worker (A rating),2023-01-24,2023-12-05,AJ Zion Limited,Active,404,Medium
Click Operations (UK) Limited,"Building 3, City West Office Park, Gelderd Road",,LS12 6LN,,https://www.cqc.org.uk/location/1-18133695735,Leeds,,Worker (A rating),2023-01-24,2024-05-13,Click Operations (UK) Limited,Active,538,Medium
Empathy Care Services Birmingham,"Park House, Bristol Road South","Rubery, Rednal",B45 9AH,https://empathycareservices.co.uk,https://www.cqc.org.uk/location/1-18773703134,Birmingham,,Worker (A rating),2022-04-12,2024-01-02,Empathy Care Services Limited,Active,694,Good
Melton Mowbray,Pera Business Park,Nottingham Road,LE13 0PB,,https://www.cqc.org.uk/location/1-14430191715,Melton Mowbray,,Worker (A rating),2023-01-24,2023-10-13,Almag Healthcare Limited,Active,343,Medium
35 Bridge Street,35 Bridge Street,,KT22 8BN,,https://www.cqc.org.uk/location/1-14443047364,Leatherhead,,Worker (A rating),2022-10-17,2024-03-01,Elite Careplus Ltd,Active,576,Medium
Holistic Recruiters Ltd,Wellington House 90-92,Butt Road,CO3 3DA,,https://www.cqc.org.uk/location/1-14498939967,Colchester,,Worker (A rating),2021-04-09,2023-03-13,Holistic Recruiters Limited,Active,871,Bad
Alas Healthcare,Cumberland House,Grosvenor Square,SO15 2BG,,https://www.cqc.org.uk/location/1-14499545076,Southampton,,Worker (A rating),2023-08-11,2023-10-13,Alas Multinational Limited,Active,88,Good
Clara Barton's Care Services,101-103 Sheldon Chambers,"2235-2243 Coventry Road, Sheldon",B26 3NW,,https://www.cqc.org.uk/location/1-14518917943,Birmingham,,Worker (A rating),2023-02-08,2024-02-26,Clara Barton's Care Services Ltd,Active,400,Good
GBU Care & Support Services Ltd,Unit 7,Ripley Drive,WF6 1RN,,https://www.cqc.org.uk/location/1-14353825476,Normanton,,Worker (A rating),2023-01-24,2023-11-02,GBU Care & Support Services Ltd,Active,376,Medium
Orlando Care Homes Ltd,Level 1,1 Charles Street,PL1 1EA,https://www.orlandocarehomes.co.uk,https://www.cqc.org.uk/location/1-16094181261,Plymouth,,Worker (A rating),2022-10-17,2024-03-01,Orlando Care Homes Ltd,Active,576,Medium
Newbus Middlesbrough,"Office 2, Stephenson Court",Skippers Lane Industrial Estate,TS6 6UT,,https://www.cqc.org.uk/location/1-14547121751,Middlesbrough,,Worker (A rating),2023-03-06,2024-02-05,Newbus Private Ltd,Active,381,Good
Anchors Healthcare Services Ltd,4 Chalkwell Lodge,London Road,SS0 9HT,,https://www.cqc.org.uk/location/1-14276909721,Westcliff-on-sea,,Worker (A rating),2023-03-06,2023-12-05,Anchors Healthcare Services Ltd,Active,326,Good
Gain Healthcare Tamworth,14 Victoria Road,,B79 7HL,https://www.gainhealthcare.co.uk,https://www.cqc.org.uk/location/1-14279869257,Tamworth,,Worker (A rating),2021-07-26,2022-06-01,Gain Healthcare Ltd,Active,485,Bad
Extreme Care Services Limited,"Unit G9, 1 High Street",,UB1 3HA,,https://www.cqc.org.uk/location/1-14291773242,Southall,,Worker (A rating),2023-04-19,2023-12-05,Extreme Care Services Ltd,Active,293,Medium
Team Carita Bexley-Heath,110 Alderney Road,,DA8 2JD,,https://www.cqc.org.uk/location/1-13976930865,Erith,,Worker (A rating),2020-10-29,2023-11-02,Team Carita DCS Limited,Active,1224,Bad
Destiney Social Care Provider Calderdale,"The Elsie Whiteley Innovation Centre, Office 16, First Floor",Hopwood Lane,HX1 5ER,,https://www.cqc.org.uk/location/1-17591668331,Halifax,,Worker (A rating),2022-08-09,2024-03-01,Destiney Social Care Provider Ltd,Active,697,Medium
New Hope Care Gloucester,31,Worcester Street,GL1 3AJ,,https://www.cqc.org.uk/location/1-17594288547,Gloucester,,Worker (A rating),2023-01-24,2023-08-11,New Hope Care Ltd,Active,267,Medium
Care 4 You Direct Leeds,"City West Office Park, Gelderd Road",,LS12 6LN,,https://www.cqc.org.uk/location/1-17595248723,Leeds,,Worker (A rating),2022-04-12,2024-03-01,Care 4 You Direct Limited,Active,779,Medium
Expert Care Solutions Swindon,16 Basepoint Business Centre,"Rivermead Industrial Estate, Rivermead Drive, Westlea",SN5 7EX,https://www.expertcaresolutionsltd.co.uk/,https://www.cqc.org.uk/location/1-17920175050,Swindon,,Worker (A rating),2022-08-09,2024-03-01,Expert Care Solutions Ltd,Active,697,Medium
Connect Nursing Norwich,"Cavell House & Austin House, Stannard Place St",St Crispins Rd,NR3 1YE,https://www.connectnursing.co.uk,https://www.cqc.org.uk/location/1-17942218542,Norwich,,Worker (A rating),2022-08-09,2023-11-02,Connect Nursing Limited,Active,550,Medium
Connect Nursing Cambridge,29C Sheraton House,Castle Park,CB3 0AX,https://www.connectnursing.co.uk,https://www.cqc.org.uk/location/1-17942218719,Cambridge,,Worker (A rating),2022-08-09,2023-11-02,Connect Nursing Limited,Active,550,Medium
Royal Care Maidstone,"Ground Floor, 26 Kings Hill Avenue",Kings Hill,ME19 4AE,,https://www.cqc.org.uk/location/1-17983909292,West Malling,,Worker (A rating),2021-07-26,2024-03-01,Sreevijay Ltd,Active,1115,Bad
Maxlife Care Ltd,Suite 5,"Oldham Street, Joiners Square Industrial Estate",ST1 3EY,,https://www.cqc.org.uk/location/1-18034475170,Stoke-on-trent,,Worker (A rating),2023-04-19,2023-12-05,MaxLife Care Ltd,Active,293,Medium
New Hope Care Derby,Office 19 College Business Centre,"The College, Uttoxeter New Road",DE22 3WZ,,https://www.cqc.org.uk/location/1-15127830149,Derby,,Worker (A rating),2023-01-24,2023-08-11,New Hope Care Ltd,Active,267,Medium
Destiny Hope Care Services Ltd,Unit 18,3 Hawksworth Street,NG3 2EG,https://www.destinyhopecareservices.co.uk,https://www.cqc.org.uk/location/1-15203896771,Nottingham,,Worker (A rating),2023-04-19,2024-01-02,Destiny Hope Care Services Ltd,Active,327,Medium
Charis Recruits Ltd,Suite 4  First Floor  Building 2,Liverpool Innovation Park,L7 9NN,,https://www.cqc.org.uk/location/1-15227990179,Liverpool,,Worker (A rating),2022-08-09,2023-02-08,Charis Recruits Ltd,Active,276,Medium
Dynasty Brighton Branch (Domiciliary Care),Queensbury House Suite 304,106 Queens Road,BN1 3XF,https://www.dynastycareservices.co.uk,https://www.cqc.org.uk/location/1-15261369093,Brighton,,Worker (A rating),2022-03-11,2024-03-01,Dynasty Care Services Limited,Active,802,Medium
Fresh Haven Healthcare Ltd - South Gloucestershire,"Office 6 Equinox South,","Great Park Road, Bradley Stoke",BS32 4QL,,https://www.cqc.org.uk/location/1-15775466674,Bristol,,Worker (A rating),2022-05-06,2024-03-01,Fresh Haven Healthcare Ltd,Active,747,Medium
ACS Healthcare Services,Thurrock Centre For Business,2 George Street,RM17 6LY,,https://www.cqc.org.uk/location/1-15971908654,Grays,,Worker (A rating),2020-10-29,2023-03-13,ACS Community Projects (ACS UK) Ltd,Active,994,Bad
Anif Care,Planetary Business Centre,Planetary Road,WV13 3SW,,https://www.cqc.org.uk/location/1-15977015036,Willenhall,West Midlands,Worker (A rating),2023-09-25,2024-03-01,Anif Homes Ltd,Active,226,Medium
Kope-Medics,Castle Cavendish Business Centre,Dorking Road,NG7 5PN,,https://www.cqc.org.uk/location/1-15476765060,Nottingham,Nottinghamshire,Worker (A rating),2021-11-02,2023-06-15,Kope-Medics Ltd,Active,632,Good
Momo & Tarek Care Gloucester,Conway House,31 Worcester Street,GL1 3AJ,https://www.momoandtarek.co.uk,https://www.cqc.org.uk/location/1-15488340139,Gloucester,,Worker (A rating),2022-08-09,2023-08-18,Momo & Tarek Care Limited,Active,455,Medium
Life Work Solutions,22 Addiscombe Road,,CR0 5PE,,https://www.cqc.org.uk/location/1-15506905821,Croydon,,Worker (A rating),2023-06-26,2024-03-01,Life Work Solutions Limited,Active,318,Medium
City Force Health Care,1 Great Exhibition Way,Kirkstall,LS5 3BF,,https://www.cqc.org.uk/location/1-15523049490,Leeds,,Worker (A rating),2021-04-09,2024-01-02,City Force Healthcare Ltd,Active,1163,Bad
Central House,"Central House, 1 Ballards Lane",Finchley,N3 1LQ,https://www.mercurycare.co.uk,https://www.cqc.org.uk/location/1-15530364685,London,,Worker (A rating),2022-10-17,2024-03-01,Mercury Care Services Limited,Active,576,Medium
Bodfem Care Limited,No. 14,"Basepoint Enterprise Centre, Stroudley Road",RG24 8UP,https://www.bodfemcare.co.uk,https://www.cqc.org.uk/location/1-16839601985,Basingstoke,,Worker (A rating),2023-01-24,2024-03-01,Bodfem Care Limited,Active,523,Medium
WOODWARD HEALTHCARE LIMITED,The Old Courthouse,Orsett Road,RM17 5DD,,https://www.cqc.org.uk/location/1-15820061702,Grays,Essex,Worker (A rating),2023-08-04,2024-01-02,Woodward Healthcare Limited,Active,200,Good
Victory Locum Limited Plymouth,"Office 22, Falcon House, Eagle Road","Langage Business Park, Plympton",PL7 5JY,https://www.victorylocum.com,https://www.cqc.org.uk/location/1-15871204929,Plymouth,,Worker (A rating),2022-08-09,2023-12-05,Victory Locum Limited,Active,578,Medium
Gloriavd Healthcare Ltd,Office 8 Martland Mill,"Mart Lane,  Burscough",L40 0SD,,https://www.cqc.org.uk/location/1-16532005674,Ormskirk,,Worker (A rating),2023-01-24,2023-12-05,Gloriavd Health Care Ltd,Active,404,Medium
Profad Care Agency Stafford Branch,22a,Princes Street,ST16 2BT,https://www.profadcareagency.co.uk,https://www.cqc.org.uk/location/1-18970964521,Stafford,,Worker (A rating),2023-01-24,2024-03-01,Profad Care Agency Limited,Active,523,Medium
Fam Daily Care Ltd,337 Straight Road,,RM3 7JT,https://www.famdailycare.com,https://www.cqc.org.uk/location/1-15177193195,Romford,,Worker (A rating),2023-04-19,2023-12-05,Fam Daily Care Ltd,Active,293,Medium
Ace Care & Domestic Recruitment Agency Limited,"BEC 2 G14, Barking & Dagenham Foyer",50 Wakering Road,IG11 8GN,,https://www.cqc.org.uk/location/1-6398965286,Barking,,Worker (A rating),2022-09-02,2024-01-02,Ace Care & Domestic Recruitment Agency Limited,Active,526,Good
Josak Care and Recruitment Ltd,Square Root Business Centre,102-116 Windmill Road,CR0 2XQ,https://www.jcrltd.co.uk,https://www.cqc.org.uk/location/1-9882724195,Croydon,Surrey,Worker (A rating),2022-10-17,2024-01-02,Josak Care and Recruitment Ltd,Active,491,Good
Pleasant Valley Care Shropshire Branch,"The Fort, Artillery Business Park",,SY11 4AD,,https://www.cqc.org.uk/location/1-9887731740,Oswestry,,Worker (A rating),2021-11-02,2023-06-01,Pleasant Valley Care Limited,Active,621,Good
Protocol Healthcare Services Ltd Office,Highview House 165-167,Station Road,HA8 7JU,,https://www.cqc.org.uk/location/1-7083880679,Edgware,,Worker (A rating),2022-05-06,2024-01-02,Protocol Healthcare Services Ltd,Active,662,Good
Threeways Dom Care,5 Brighton Road,Salfords,RH1 5BS,,https://www.cqc.org.uk/location/1-6026548287,Redhill,Surrey,Worker (A rating),2020-07-27,2021-07-26,Threeways Care Limited,Active,-,-
Confident Care 24/7,98A Broad Street,,CT1 2LU,https://www.confidentcare24.com,https://www.cqc.org.uk/location/1-8519277696,Canterbury,Kent,Worker (A rating),2021-07-26,2023-10-13,Confident Care 24/7 Ltd,Active,935,Bad
Purple Skilled Healthcare - Main Office,"1st Floor, Romer House",132 Lewisham High Street,SE13 6EE,,https://www.cqc.org.uk/location/1-13370182729,London,,Worker (A rating),2023-04-19,2024-01-02,Purple Skilled Healthcare Limited,Active,327,Medium
1st Recruitment Group Main Office,88 Lindisfarne Close,Eynesbury,PE19 2UU,https://www.1strecruitmentgroup.co.uk,https://www.cqc.org.uk/location/1-13375071092,St. Neots,,Worker (A rating),2023-04-19,2024-03-01,1st Recruitment Group Limited,Active,412,Medium
The Octagon,"Suite T, The Octagon",27 Middleborough,CO1 1TG,https://www.peabody.org.uk,https://www.cqc.org.uk/location/1-13632175145,Colchester,,Worker (A rating),2020-07-27,2023-06-01,Peabody Trust,Active,-,-
Intrinsic Care- Canterbury,Lullingstone Court,St. Johns Lane,CT1 2NX,,https://www.cqc.org.uk/location/1-13401759303,Canterbury,,Worker (A rating),2021-04-09,2024-03-01,The Intrinsic Care Group Limited,Active,1248,Bad
Intrinsic Care- Dartford,Regus House,"Victory Way, Crossways Business Park",DA2 6QD,,https://www.cqc.org.uk/location/1-13401759424,Dartford,Kent,Worker (A rating),2021-04-09,2024-03-01,The Intrinsic Care Group Limited,Active,1248,Bad
Auxiliary First Care Ltd,11 Meadowside Avenue,Audley,ST7 8EH,https://www.auxiliaryfirstcare.co.uk,https://www.cqc.org.uk/location/1-13642736655,Stoke-on-trent,,Worker (A rating),2023-05-23,2024-03-01,Auxiliary First Care Ltd,Active,348,Medium
Halle Healthcare Limited,50 Bradford Street,,WS1 3QD,https://www.hallehealth.co.uk,https://www.cqc.org.uk/location/1-13747057266,Walsall,,Worker (A rating),2023-04-19,2024-01-02,Halle Healthcare Limited,Active,327,Medium
Light Care Services Limited,AW House,6-8 Stuart Street,LU1 2SJ,,https://www.cqc.org.uk/location/1-13693163282,Luton,,Worker (A rating),2023-01-24,2023-12-05,Light Care Services Limited,Active,404,Medium
JEN Care Solutions = Main Office,Bloxham Mill,"Barford Road, Bloxham",OX15 4FF,https://www.jencaresolutions.co.uk/,https://www.cqc.org.uk/location/1-13681273816,Banbury,Oxfordshire,Worker (A rating),2023-08-04,2023-11-02,JEN Care Solutions Limited,Active,138,Good
Efficiency Health and Homecare Services,Henleaze House,13 Harbury Road,BS9 4PN,https://www.efficiencyhealthandhomecareservice.co.uk,https://www.cqc.org.uk/location/1-13774835536,Bristol,Avon,Worker (A rating),2022-11-22,2024-03-01,Efficiency Health and Home Care Services Limited,Active,544,Medium
Umuzi Healthcare Agency Ltd,27 Stuart Crescent,,SO22 4AU,,https://www.cqc.org.uk/location/1-15458258000,Winchester,,Worker (A rating),2023-09-15,2024-03-01,Umuzi Healthcare Agency Ltd,Active,233,Medium
Perran Home Care,"23 Lemon Street, Suite 3",,TR1 2LS,,https://www.cqc.org.uk/location/1-14880710718,Truro,,Worker (A rating),2023-05-23,2023-11-02,Perran Home Care Limited,Active,201,Good
St Margaret Healthcare Services Ltd,"Office 11, 2nd Floor, Gor-Ray House",758 Great Cambridge Road,EN1 3GN,,https://www.cqc.org.uk/location/1-12566946975,Enfield,,Worker (A rating),2022-10-17,2024-01-02,St Margaret Healthcare Services Ltd,Active,491,Good
Tercare Ltd,54 Plumstead High Street,,SE18 1SL,,https://www.cqc.org.uk/location/1-10232831012,London,,Worker (A rating),2023-04-19,2024-03-01,Tercare Ltd,Active,412,Medium
Guardian Alliance,"Unit 5, Hutton Close",South Church Enterprise Park,DL14 6XG,,https://www.cqc.org.uk/location/1-18700792444,Bishop Auckland,,Worker (A rating),2023-03-13,2023-12-05,Guardian Alliance Recruitment Training & Development Ltd,Active,300,Good
Team Personnel Solutions Limited,Unit 10 Pacific House,Fletcher Way,CA3 0LJ,,https://www.cqc.org.uk/location/1-18781773946,Carlisle,,Worker (A rating),2022-04-12,2024-03-01,Team Personnel Solutions Limited,Active,779,Medium
Henath Home Care Service,26 Alport Heights Drive,Oakwood,DE21 2AE,,https://www.cqc.org.uk/location/1-14809676963,Derby,,Worker (A rating),2023-03-13,2023-11-02,Henath Home Care Service Limited,Active,272,Good
CIVIC HEALTHCARE LIMITED,Leeds Thorp Park Buisness Park,"1200 Century Way, Colton",LS15 8ZA,,https://www.cqc.org.uk/location/1-18068804992,Leeds,,Worker (A rating),2023-03-13,2024-03-01,Civic Healthcare Limited,Active,419,Medium
Felt Care Ltd,"Office 9, Hucknall Business Centre","Papplewick Lane, Hucknall",NG15 7TN,,https://www.cqc.org.uk/location/1-13256872110,Nottingham,,Worker (A rating),2023-07-05,2024-02-05,Felt Care Ltd,Active,243,Good
U&I,Rear of 5 Woodgate,Rothley,LE7 7LL,,https://www.cqc.org.uk/location/1-17919833833,Leicester,,Worker (A rating),2020-07-27,2023-07-18,Kerala Ayurveda Centre Ltd,Active,-,-
Betacare Agency Ltd,"Unit 2, Palmerston Street",Joiners Square Industrial Estate,ST1 3EU,,https://www.cqc.org.uk/location/1-15655620029,Stoke-on-trent,,Worker (A rating),2021-07-26,2023-04-26,Betacare Agency Ltd,Active,754,Bad
Triple E Healthcare Ltd (Aylesbury),"Suite 15, Pure Offices","Midshires Business Park, Smeaton Close",HP19 8HL,,https://www.cqc.org.uk/location/1-14144060193,Aylesbury,,Worker (A rating),2023-02-08,2024-01-02,Triple E Healthcare Ltd,Active,375,Good
Odan Healthcare Agency,32 Kingsley Road,Swinton,M27 9PS,,https://www.cqc.org.uk/location/1-14962739284,Manchester,,Worker (A rating),2023-01-24,2023-11-02,ODAN HEALTHCARE AGENCY LIMITED,Active,376,Medium
GoodWorks Consultancy Limited,"Office 1.1, 1 Universal Square",Devonshire Street North,M12 6JH,https://www.goodworks-limited.co.uk,https://www.cqc.org.uk/location/1-19232978113,Manchester,,Worker (A rating),2023-09-08,2024-05-13,GoodWorks Consultancy Limited,Active,255,Good
Team Carita Medway,26 Somerset Close,,ME5 7SN,,https://www.cqc.org.uk/location/1-13974622758,Chatham,,Worker (A rating),2020-10-29,2023-11-02,Team Carita DCS Limited,Active,1224,Bad
CCS Care Ltd,"FA3B, The Old Library",St. Faiths Street,ME14 1LH,,https://www.cqc.org.uk/location/1-15302138723,Maidstone,,Worker (A rating),2023-08-04,2024-04-30,CCS Care Ltd,Active,298,Good
Royal Care Dover,Unit 5 Poulton Business Park,Poulton Close,CT17 0HL,https://www.royalcare24.co.uk,https://www.cqc.org.uk/location/1-19274092795,Dover,,Worker (A rating),2021-07-26,2024-03-01,Sreevijay Ltd,Active,1115,Bad
Cecile Healthcare UK,1 Meadow View,,BR5 3EJ,,https://www.cqc.org.uk/location/1-13196984603,Orpington,,Worker (A rating),2023-03-06,2024-03-01,Cecile Healthcare UK Limited,Active,445,Medium
Lifeline Agency Limited,Cumberland Place,Grosvenor,SO15 2BG,https://www.lifelinehcare.com,https://www.cqc.org.uk/location/1-14956978349,Southampton,,Worker (A rating),2022-08-09,2023-12-05,Lifeline Agency Limited,Active,578,Medium
Connect Provider,4 Emerald Way,Broughton,HP22 7DA,,https://www.cqc.org.uk/location/1-15893963226,Aylesbury,,Worker (A rating),2023-07-05,2024-03-01,Connect Provider Limited,Active,307,Medium
Applegarth Nursing Home,243 Newtown Road,,CA2 7LT,https://www.applegarthhealthcare.com,https://www.cqc.org.uk/location/1-3733288172,Carlisle,Cumbria,Worker (A rating),2020-07-27,2021-04-09,Applegarth Healthcare Limited,Active,-,-
Swansea Terrace,108-114 Watery Lane,Ashton On Ribble,PR2 1AT,https://www.wecaregroup.co.uk/our-homes/swansea-terrace,https://www.cqc.org.uk/location/1-423392615,Preston,Lancashire,Worker (A rating),2020-07-27,2022-03-11,Flightcare Limited,Active,-,-
Cherry Tree House Residential Home,49 Dobbins Lane,Wendover,HP22 6DH,https://www.cherrytreehome.co.uk,https://www.cqc.org.uk/location/1-3057992157,Aylesbury,Buckinghamshire,Worker (A rating),2020-07-27,2023-08-11,Salveo Care Ltd,Active,-,-
Revitalise Jubilee Lodge,Grange Farm,High Road,IG7 6DP,https://www.revitalise.org.uk,https://www.cqc.org.uk/location/1-119946662,Chigwell,Essex,Worker (A rating),2020-07-27,2022-08-26,Revitalise Respite Holidays,Active,-,-
Galtee More Residential Home Ltd,164 Doncaster Road,,S70 1UD,,https://www.cqc.org.uk/location/1-12429335541,Barnsley,South Yorkshire,Worker (A rating),2023-10-02,2024-01-02,Galtee More Residential Home Ltd,Active,131,Good
The Pines,Poldory,Carharrack,TR16 5HS,https://www.switchedoncare.com,https://www.cqc.org.uk/location/1-1642136719,Redruth,Cornwall,Worker (A rating),2020-07-27,2023-07-05,Green Light PBS Limited,Active,-,-
Langley Homes,Peel Street Villas 37a - 39,"Station Road, Langley Mill",NG16 4DQ,https://www.oasiscareuk.com,https://www.cqc.org.uk/location/1-8583130735,Nottingham,,Worker (A rating),2022-04-12,2024-02-05,Oasis-Care UK Group Limited,Active,715,Good
Revitalise Sandpipers,Fairways,,PR9 0LA,https://www.revitalise.org.uk,https://www.cqc.org.uk/location/1-119946626,Southport,Merseyside,Worker (A rating),2020-07-27,2022-08-26,Revitalise Respite Holidays,Active,-,-
Farmborough Court Intermediate Care Service,"Farmborough Court, Brentford Avenue",Town End Farm,SR5 4EU,https://www.sunderland.gov.uk,https://www.cqc.org.uk/location/1-142936843,Sunderland,Tyne and Wear,Worker (A rating),2020-07-27,2023-10-02,Sunderland City Council,Active,-,-
Orchard Nursing,St. Mary's Road,Huyton,L36 5UY,https://www.wecaregroup.co.uk/our-homes/orchard-nursing/,https://www.cqc.org.uk/location/1-116359067,Liverpool,Merseyside,Worker (A rating),2020-07-27,2022-03-11,Flightcare Limited,Active,-,-
Belmont House Devon Ltd,13 Greenover Road,,TQ5 9LY,https://www.belmonthousedevoncarehome.com,https://www.cqc.org.uk/location/1-12748180290,Brixham,Devon,Worker (A rating),2023-05-23,2023-07-18,Belmont House (Devon) Limited,Active,78,Good
Millbrook House,Child Okeford,,DT11 8EY,,https://www.cqc.org.uk/location/1-119972300,Blandford Forum,Dorset,Worker (A rating),2022-01-12,2023-05-16,Millbrook House (Dorset) Limited,Active,565,Bad
Ashley Grange Nursing Home,Lode Hill,Downton,SP5 3PP,https://www.ashleygrange.co.uk,https://www.cqc.org.uk/location/1-323759900,Salisbury,Wiltshire,Worker (A rating),2020-07-27,2021-04-09,Ashley Grange Nursing Home Limited,Active,-,-
Fallowfield,Ashfield Lane,,BR7 6LQ,https://www.millscaregroup.co.uk,https://www.cqc.org.uk/location/1-119778726,Chislehurst,Kent,Worker (A rating),2020-07-27,2023-03-13,Mills Family Limited,Active,-,-
St Margaret's Care Home,9 Old Hall Road,,WF17 0AX,https://www.hallehealth.co.uk,https://www.cqc.org.uk/location/1-17068048748,Batley,,Worker (A rating),2023-04-19,2024-01-02,Halle Healthcare Limited,Active,327,Medium
Acorn House Care Centre,Whalley New Road,,BB1 9SP,,https://www.cqc.org.uk/location/1-329250007,Blackburn,Lancashire,Worker (A rating),2020-07-27,2023-05-05,Countrywide Care Homes Limited,Active,-,-
Emerald House,"Manor Farm, Dobbs Lane,",Rackheath,NR13 6NH,,https://www.cqc.org.uk/location/1-15282671993,Norwich,,Worker (A rating),2020-07-27,2021-04-09,Allcare Community Support Limited,Active,-,-
Pendragon,22 Pendragon Crescent,,TR7 2SY,https://www.switchedoncare.com,https://www.cqc.org.uk/location/1-7168178583,Newquay,,Worker (A rating),2020-07-27,2023-07-05,Green Light PBS Limited,Active,-,-
Maranatha Residential Home,211 York Road,,SS1 2RU,,https://www.cqc.org.uk/location/1-135546338,Southend On Sea,Essex,Worker (A rating),2020-07-27,2021-09-30,AMA Generic Limited,Active,-,-
Bilton Hall Nursing Home,Bilton Hall Drive,,HG1 4DW,https://www.biltonhall.co.uk,https://www.cqc.org.uk/location/1-160211345,Harrogate,North Yorkshire,Worker (A rating),2020-07-27,2022-04-12,Ultimate Care Limited,Active,-,-
Foxhole House,2 & 4 Creaz An Bre,Foxhole,PL26 7SN,https://www.switchedoncare.com,https://www.cqc.org.uk/location/1-9779630488,St. Austell,,Worker (A rating),2020-07-27,2023-07-05,Green Light PBS Limited,Active,-,-
Trevelthan House,23 Trevelthan Road,Illogan,TR16 4DX,https://www.switchedoncare.com,https://www.cqc.org.uk/location/1-8896583560,Redruth,,Worker (A rating),2020-07-27,2023-07-05,Green Light PBS Limited,Active,-,-
David House,36 Sandy Lane South,,SM6 9QZ,,https://www.cqc.org.uk/location/1-3083188247,Wallington,Surrey,Worker (A rating),2020-07-27,2022-10-17,Care Direct UK Limited,Active,-,-
Allison House Residential Home,Swan Lane,,SG19 1NE,,https://www.cqc.org.uk/location/1-1547491839,Sandy,Bedfordshire,Worker (A rating),2020-07-27,2021-04-09,Central Bedfordshire Council,Active,-,-
Ferndale Residential Home,Easton Road,,MK45 1HB,,https://www.cqc.org.uk/location/1-1548075487,Flitwick,Bedfordshire,Worker (A rating),2020-07-27,2021-04-09,Central Bedfordshire Council,Active,-,-
Fairglen Residential Home,Lancaster Gardens,Whitleigh,PL5 4AB,,https://www.cqc.org.uk/location/1-109006888,Plymouth,Devon,Worker (A rating),2021-11-02,2022-06-01,Gyaneshwar Purgaus and Miss Santee Sawock,Active,311,Medium
Hilltop Manor Care Home Limited,15 Finkle Hill,Sherburn-in-Elmet,LS25 6EB,,https://www.cqc.org.uk/location/1-161524045,Leeds,West Yorkshire,Worker (A rating),2022-11-22,2023-04-19,Hilltop Manor Residential Care Home Limited,Active,174,Good
Fairlight,Bromley Lane,,BR7 6LL,https://www.millscaregroup.co.uk,https://www.cqc.org.uk/location/1-9405286125,Chislehurst,,Worker (A rating),2020-07-27,2023-03-13,Mills Family Limited,Active,-,-
Courtfield Lodge,81A Marians Drive,,L39 1LG,https://www.wecaregroup.co.uk/our-homes/courtfield-lodge/,https://www.cqc.org.uk/location/1-116376128,Ormskirk,Lancashire,Worker (A rating),2020-07-27,2022-03-11,Flightcare Limited,Active,-,-
Tresleigh,Fore Street,Grampound Road,TR2 4DU,https://www.switchedoncare.com,https://www.cqc.org.uk/location/1-7168178867,Truro,Cornwall,Worker (A rating),2020-07-27,2023-07-05,Green Light PBS Limited,Active,-,-
St Saviours Care Home,5 Lidget Lane,,DN22 6QW,https://www.stsaviourscarehome.com,https://www.cqc.org.uk/location/1-125549970,Retford,Nottinghamshire,Worker (A rating),2020-07-27,2021-11-02,St Saviours Care Home Limited,Active,-,-
Westlands Residential Home,Duncombe Drive,,LU7 1SD,,https://www.cqc.org.uk/location/1-1548928831,Leighton Buzzard,Bedfordshire,Worker (A rating),2020-07-27,2021-04-09,Central Bedfordshire Council,Active,-,-
Grindon Short Break Service,210 Grindon Lane,Grindon,SR4 8HW,https://www.sunderland.gov.uk,https://www.cqc.org.uk/location/1-142936673,Sunderland,Tyne and Wear,Worker (A rating),2020-07-27,2023-10-02,Sunderland City Council,Active,-,-
Villette Lodge Assessment and Re-enablement Service,1 Edith Street,Hendon,SR2 8JS,https://www.sunderland.gov.uk,https://www.cqc.org.uk/location/1-142936739,Sunderland,Tyne and Wear,Worker (A rating),2020-07-27,2023-10-02,Sunderland City Council,Active,-,-
Huthnance Park,Nancegollan,,TR13 0AZ,https://www.switchedoncare.com,https://www.cqc.org.uk/location/1-530260794,Helston,Cornwall,Worker (A rating),2020-07-27,2023-07-05,Green Light PBS Limited,Active,-,-
Highfield Residential Home,Stream Road,,DY6 9PB,,https://www.cqc.org.uk/location/1-309162132,Kingswinford,West Midlands,Worker (A rating),2023-01-24,2024-01-02,Highfield Residential Homes Limited,Active,438,Medium
Moorhaven Care Home Ltd,Moorhaven Nursing Home,193 Ripponden Road,OL1 4HR,,https://www.cqc.org.uk/location/1-138452042,Oldham,Lancashire,Worker (A rating),2023-10-02,2024-04-30,Moorhaven Care Home Ltd,Active,229,Good
Howgate House,Howgate,Idle,BD10 9RD,,https://www.cqc.org.uk/location/1-310212539,Bradford,West Yorkshire,Worker (A rating),2020-07-27,2023-05-05,Countrywide Care Homes Limited,Active,-,-
Poldark,Skinners Bottom,,TR16 5EA,https://www.switchedoncare.com,https://www.cqc.org.uk/location/1-5878291418,Redruth,,Worker (A rating),2020-07-27,2023-07-05,Green Light PBS Limited,Active,-,-
Bigwig House,Rhubarb Hill,Holywell Bay,TR8 5PT,https://www.switchedoncare.com,https://www.cqc.org.uk/location/1-303517313,Newquay,Cornwall,Worker (A rating),2020-07-27,2023-07-05,Green Light PBS Limited,Active,-,-
Broadway Nursing,22-32 Flemington Avenue,Clubmoor,L4 8UD,https://www.wecaregroup.co.uk/our-homes/broadway-nursing-home-liverpool/,https://www.cqc.org.uk/location/1-116376104,Liverpool,Merseyside,Worker (A rating),2020-07-27,2022-03-11,Flightcare Limited,Active,-,-
St Anne's Residential Care Home,Clifton,,OX15 0PA,https://www.fewcott.com,https://www.cqc.org.uk/location/1-116510195,Banbury,Oxfordshire,Worker (A rating),2022-01-12,2023-01-24,Mr Prashant Brahmbhatt,Active,461,Bad
Gallimore Lodge,Meesons Lane,,RM17 5HR,,https://www.cqc.org.uk/location/1-4926303164,Grays,,Worker (A rating),2020-07-27,2023-06-01,Peabody Trust,Active,-,-
The Sloane Nursing Home,28 Southend Road,,BR3 5AA,https://www.millscaregroup.co.uk,https://www.cqc.org.uk/location/1-119778767,Beckenham,Kent,Worker (A rating),2020-07-27,2023-03-13,Mills Family Limited,Active,-,-
Linsell House,Ridgeway Avenue,,LU5 4QJ,https://www.centralbedfordshire.gov.uk,https://www.cqc.org.uk/location/1-130953724,Dunstable,,Worker (A rating),2020-07-27,2021-04-09,Central Bedfordshire Council,Active,-,-
Lowenac,2 Lowenac Gardens,,TR14 7EX,https://www.switchedoncare.com,https://www.cqc.org.uk/location/1-1841859942,Camborne,Cornwall,Worker (A rating),2020-07-27,2023-07-05,Green Light PBS Limited,Active,-,-
Thornbury,West Tolgus,,TR15 3TN,,https://www.cqc.org.uk/location/1-3090676388,Redruth,Cornwall,Worker (A rating),2020-07-27,2023-07-05,Green Light PBS Limited,Active,-,-
Magenta,31 St Johns Church Road,,CT19 5BH,https://www.proactivedevelopment.co.uk,https://www.cqc.org.uk/location/1-106348462,Folkestone,Kent,Worker (A rating),2020-07-27,2022-09-02,Blythson Limited,Active,-,-
Oxford House,7 Oxford Road,,BN11 1XG,https://www.arundelcareservices.co.uk,https://www.cqc.org.uk/location/1-108982681,Worthing,West Sussex,Worker (A rating),2022-10-17,2022-10-17,Arundel Care Services Limited,Active,30,Good
Grindon Mews Short Break Centre,Grindon Mews,Nookside Grindon,SR4 8PQ,,https://www.cqc.org.uk/location/1-3850527064,Sunderland,Tyne And Wear,Worker (A rating),2020-07-27,2023-10-02,Sunderland City Council,Active,-,-
Threeways,5 Brighton Road,Salfords,RH1 5BS,,https://www.cqc.org.uk/location/1-1072700059,Redhill,Surrey,Worker (A rating),2020-07-27,2021-07-26,Threeways Care Limited,Active,-,-
Wheal Gerry,"33, 34 and 36 Wheal Gerry",,TR14 8TY,https://www.switchedoncare.com,https://www.cqc.org.uk/location/1-1875262134,Camborne,Cornwall,Worker (A rating),2020-07-27,2023-07-05,Green Light PBS Limited,Active,-,-
Comprigney Vean,Comprigney Hill,,TR1 3EF,https://www.switchedoncare.com,https://www.cqc.org.uk/location/1-1940421518,Truro,Cornwall,Worker (A rating),2020-07-27,2023-07-05,Green Light PBS Limited,Active,-,-
September Lodge,Wheal Hope,Goonhavern,TR4 9QJ,https://www.switchedoncare.com,https://www.cqc.org.uk/location/1-150212672,Truro,Cornwall,Worker (A rating),2020-07-27,2023-07-05,Green Light PBS Limited,Active,-,-
Tranquil Cross,South Drive,Tehidy,TR14 0EZ,,https://www.cqc.org.uk/location/1-3078078820,Camborne,Cornwall,Worker (A rating),2020-07-27,2023-07-05,Green Light PBS Limited,Active,-,-
Penrose Farm,Bodmin Road,Goonhavern,TR4 9QF,https://www.switchedoncare.com,https://www.cqc.org.uk/location/1-1701760508,Truro,Cornwall,Worker (A rating),2020-07-27,2023-07-05,Green Light PBS Limited,Active,-,-
Beech Close,3 Beech Close,,LU6 3SD,,https://www.cqc.org.uk/location/1-12673891999,Dunstable,,Worker (A rating),2020-07-27,2021-04-09,Central Bedfordshire Council,Active,-,-
Evergreen SUSD Unit,"Evergreen SUSD Unit C/O Wingfield Court,",Ampthill,MK45 2TE,,https://www.cqc.org.uk/location/1-18838619850,Bedford,,Worker (A rating),2020-07-27,2021-04-09,Central Bedfordshire Council,Active,-,-
Pilgrimage Short Stay Recovery Unit,47 Punchbowl Lane,,PE21 8HU,,https://www.cqc.org.uk/location/1-13646623902,Boston,,Worker (A rating),2021-09-30,2024-03-01,Healthy Home Care Services Ltd,Active,1007,Medium
